{"type":"FeatureCollection","features":[{"type":"Feature","id":1,"geometry":{"type":"Point","coordinates":[6.731480399628308,7.793616200282562]},"properties":{"F_id":"way/617512416","name":"Kogi State Specialist Hospital, Lokoja","facility_type":"hospital","priority":"Moderate"}},{"type":"Feature","id":2,"geometry":{"type":"Point","coordinates":[6.292716500300798,8.581634999639704]},"properties":{"F_id":"way/636153576","name":null,"facility_type":"school","priority":"Low"}},{"type":"Feature","id":3,"geometry":{"type":"Point","coordinates":[6.21508369972805,8.633591499988484]},"properties":{"F_id":"way/639483780","name":null,"facility_type":"school","priority":"Low"}},{"type":"Feature","id":4,"geometry":{"type":"Point","coordinates":[6.238460700032821,8.536543299616312]},"properties":{"F_id":"way/640127407","name":null,"facility_type":"school","priority":"Low"}},{"type":"Feature","id":5,"geometry":{"type":"Point","coordinates":[6.238189800428163,8.544077599911136]},"properties":{"F_id":"way/640127413","name":null,"facility_type":"school","priority":"Low"}},{"type":"Feature","id":6,"geometry":{"type":"Point","coordinates":[6.7316437995598015,7.793511399790668]},"properties":{"F_id":"way/773166778","name":"Specialist Hospital","facility_type":"hospital","priority":"Moderate"}},{"type":"Feature","id":7,"geometry":{"type":"Point","coordinates":[6.683974499864236,7.85250179957367]},"properties":{"F_id":"way/1111991413","name":null,"facility_type":"police","priority":"Moderate"}},{"type":"Feature","id":8,"geometry":{"type":"Point","coordinates":[6.683286900440789,7.857601499728099]},"properties":{"F_id":"way/1545832022","name":"School Clinic","facility_type":"clinic","priority":"Low"}},{"type":"Feature","id":9,"geometry":{"type":"Point","coordinates":[6.6844031004095275,7.8538636998128775]},"properties":{"F_id":"way/1545832030","name":null,"facility_type":"bus_station","priority":"Low"}},{"type":"Feature","id":10,"geometry":{"type":"Point","coordinates":[6.68135620012388,7.863573099808226]},"properties":{"F_id":"way/1545832033","name":"Market","facility_type":"marketplace","priority":"Low"}},{"type":"Feature","id":11,"geometry":{"type":"Point","coordinates":[6.741567600379502,7.799936999724872]},"properties":{"F_id":"node/8851563676","name":"Federal Medical Centre","facility_type":"hospital","priority":"Moderate"}},{"type":"Feature","id":12,"geometry":{"type":"Point","coordinates":[6.731997499561539,7.79213750019482]},"properties":{"F_id":"node/8851563682","name":"Federal University Lokoja","facility_type":"university","priority":"Moderate"}},{"type":"Feature","id":13,"geometry":{"type":"Point","coordinates":[6.736877699778169,7.803322999733601]},"properties":{"F_id":"node/8851563687","name":"A division","facility_type":"police","priority":"Moderate"}},{"type":"Feature","id":14,"geometry":{"type":"Point","coordinates":[6.748856399719743,7.81530219980237]},"properties":{"F_id":"node/8851563692","name":"Old Market","facility_type":"marketplace","priority":"Critical"}},{"type":"Feature","id":15,"geometry":{"type":"Point","coordinates":[6.26156310035532,8.54913550016614]},"properties":{"F_id":"node/9990022015","name":null,"facility_type":"school","priority":"Low"}},{"type":"Feature","id":16,"geometry":{"type":"Point","coordinates":[6.242588599905111,8.557474299711773]},"properties":{"F_id":"node/9990029981","name":null,"facility_type":"school","priority":"Low"}},{"type":"Feature","id":17,"geometry":{"type":"Point","coordinates":[6.433596400013535,8.41228030039436]},"properties":{"F_id":"node/9990036716","name":null,"facility_type":"police","priority":"Moderate"}},{"type":"Feature","id":18,"geometry":{"type":"Point","coordinates":[6.431494900146772,8.413212399839715]},"properties":{"F_id":"node/9990036947","name":null,"facility_type":"marketplace","priority":"Low"}},{"type":"Feature","id":19,"geometry":{"type":"Point","coordinates":[6.322745800100032,8.490243699968872]},"properties":{"F_id":"node/9990037927","name":null,"facility_type":"school","priority":"Low"}},{"type":"Feature","id":20,"geometry":{"type":"Point","coordinates":[6.323191600438709,8.490579099865766]},"properties":{"F_id":"node/9990037930","name":null,"facility_type":"school","priority":"Low"}},{"type":"Feature","id":21,"geometry":{"type":"Point","coordinates":[6.3862007004250705,8.486290400314928]},"properties":{"F_id":"node/9990040840","name":null,"facility_type":"marketplace","priority":"Low"}},{"type":"Feature","id":22,"geometry":{"type":"Point","coordinates":[6.386431700003211,8.484798499868994]},"properties":{"F_id":"node/9990040843","name":null,"facility_type":"marketplace","priority":"Low"}},{"type":"Feature","id":23,"geometry":{"type":"Point","coordinates":[6.241940700370358,8.562525999655879]},"properties":{"F_id":"node/9990045040","name":null,"facility_type":"police","priority":"Moderate"}},{"type":"Feature","id":24,"geometry":{"type":"Point","coordinates":[6.244400000307477,8.558736800137282]},"properties":{"F_id":"node/9990045054","name":null,"facility_type":"school","priority":"Low"}}],"name":"lokoja_critical_facilities"}