{"type":"FeatureCollection","features":[{"type":"Feature","id":1,"geometry":{"type":"Polygon","coordinates":[[[6.109218144502789,8.408611582577398],[6.109557070019391,8.408196913021895],[6.1148589260076225,8.408107711372509],[6.1201474128013444,8.406863591308293],[6.127050089803836,8.405824640531826],[6.134470063312488,8.408232534233138],[6.141007098254546,8.41296363846272],[6.1461350673504915,8.41633029243346],[6.1547455819091805,8.420793871133398],[6.163958065131224,8.419946590183976],[6.173629854710819,8.41886306624215],[6.1925008083671305,8.416236679548522],[6.204932791862252,8.414644750361413],[6.2210925528822605,8.415291349040777],[6.254263822533192,8.39814164314942],[6.278788888268956,8.37422302516219],[6.28949512597221,8.365746218609127],[6.30313554712905,8.353300851140542],[6.324516941360143,8.33450580112857],[6.33969569328351,8.31742745728073],[6.359021428208933,8.300050264724621],[6.370775655983316,8.285103397653096],[6.390315409734679,8.252284402617674],[6.406622344017161,8.233574023509922],[6.4184656889064655,8.210101327860608],[6.42678192374363,8.196367295569875],[6.436297672982213,8.18583488381228],[6.45211858129156,8.165523681588018],[6.466949520647016,8.141306305488367],[6.467333009388844,8.122176747785163],[6.466280696236464,8.114128085175434],[6.4554138098298095,8.0984142210285],[6.451877779723766,8.093638556928054],[6.450004968976989,8.092055557450136],[6.445202511399007,8.080154159784083],[6.4300370618704115,8.05552658961687],[6.425323809183869,8.035099416657214],[6.416325335747901,8.020736696456636],[6.418015381344043,8.011029188632204],[6.426135385174061,7.985313544009375],[6.432882022565778,7.974602804263966],[6.442411129903051,7.950474649250917],[6.449487693073382,7.93169288459192],[6.445532462170403,7.915399344429721],[6.42895351374929,7.903007464059993],[6.412008936925665,7.910668256896035],[6.391465865709752,7.924152536290681],[6.378802017824702,7.940031372407842],[6.357326963888873,7.967124885452627],[6.342045652056408,7.977982854599646],[6.323602832012333,7.99304122638257],[6.309266770267762,8.005036146002205],[6.299938333390693,8.013026886876094],[6.279894728135931,8.029039523287608],[6.256025103176147,8.050639406926793],[6.2443556937369324,8.056596786421995],[6.235651499604652,8.06043162550356],[6.223241853206633,8.063405814524987],[6.205169080838818,8.05841163726826],[6.195787135812165,8.048895873480252],[6.191675832784796,8.037213032190756],[6.1940525846599535,8.027264824554175],[6.196678962506154,8.018466976195477],[6.202489142919299,8.007078458134693],[6.207474440922233,8.001459943029152],[6.219656731416147,7.98443513820369],[6.220432590548363,7.975436648383157],[6.221886250835169,7.965274413499116],[6.224713317992868,7.954853418851136],[6.224387852874165,7.948869354244057],[6.227223783881941,7.938912181612941],[6.234532269639937,7.93441290202645],[6.2418362704279655,7.929449915880526],[6.246192781662697,7.927764422530284],[6.256743067768637,7.924130274426236],[6.2682252091198825,7.920937553798114],[6.278927116285082,7.9122333645728276],[6.293058010857738,7.90162515395657],[6.292496132652898,7.895413616183259],[6.306033959592461,7.876520390707192],[6.300647395877325,7.857252692049865],[6.303296053207434,7.850064554105418],[6.300607251127805,7.840664829390306],[6.2997867569083486,7.832616089702839],[6.297392244621223,7.827354389743769],[6.300232646974932,7.817397194765327],[6.2987700962796715,7.812585868210864],[6.296277416949126,7.801108115313298],[6.293191730517799,7.79562785563825],[6.290391464045145,7.793830833237248],[6.286440670255888,7.789278077830657],[6.295577323391879,7.7863707908959565],[6.300678539470186,7.787900239182618],[6.3050618865560715,7.788051834634324],[6.311928852597775,7.784711993212443],[6.325631707147442,7.776186199272972],[6.332017167953459,7.771700365817536],[6.338442720380826,7.769515379756788],[6.351597018976586,7.769983621301676],[6.366486012905362,7.7775685136625325],[6.377673880464157,7.7847521427290705],[6.390230699589467,7.790990385406846],[6.399073133439718,7.795676937181239],[6.415808093314164,7.8034580272579115],[6.425836660442919,7.8102002457067705],[6.437947535209314,7.817138597024464],[6.453072775611154,7.825410185540076],[6.466334201937486,7.832326303068597],[6.479542049717385,7.836022884999422],[6.492509097863431,7.838796438692661],[6.512218293048777,7.845146198592247],[6.524012682517591,7.847018982079592],[6.53864294927571,7.852994194617549],[6.548653640940285,7.844298942892624],[6.547012697068307,7.842711500829963],[6.552653424367528,7.835015146222722],[6.55392434063723,7.833735327899016],[6.560826961656619,7.826810357574993],[6.580612026068307,7.823479385346165],[6.603393562101407,7.820099455368181],[6.619482038505931,7.816371628863583],[6.620373864078237,7.814512145563314],[6.645313591374217,7.815930152461492],[6.653045629789676,7.809116681758675],[6.669914448438675,7.796849664912819],[6.683541430565861,7.7834857382532965],[6.690577921641848,7.762166808840442],[6.693801857513562,7.757828108749198],[6.700285386921887,7.74910157931489],[6.707892624598811,7.734453493388626],[6.730103410556895,7.709883821967594],[6.747141642666281,7.693697302430731],[6.759096424007886,7.686018693840982],[6.757299460012088,7.708501473871129],[6.75865056820339,7.749262156620679],[6.763261296909162,7.763241436286818],[6.771559653538912,7.783793440797671],[6.772875108580963,7.7870440806012615],[6.778975168491119,7.821963334195372],[6.779858010311992,7.847986649295834],[6.780892529623587,7.854880443538002],[6.777976305810764,7.9028558936505355],[6.775439098094835,7.9455250512042195],[6.774578458958802,7.96374491751924],[6.775510430197446,7.992760305006172],[6.765379330241144,8.036713594383023],[6.759261436308302,8.057782886973541],[6.751435696856495,8.073122188601278],[6.7451082446895505,8.081295717047933],[6.738780759236279,8.089469260015782],[6.725385641149629,8.102596848718475],[6.717501959175297,8.11448483396613],[6.702332063937274,8.132249907450667],[6.696682457243669,8.153773986581626],[6.686997239260747,8.167998463251974],[6.680562778026044,8.198141969455907],[6.670079395225329,8.19832036458757],[6.667127468881945,8.200077246613855],[6.654526105124201,8.207581915726106],[6.637385334846241,8.22735804441417],[6.637073139538934,8.227719228445483],[6.626175154608144,8.239210345866681],[6.610773345941985,8.257697796558825],[6.601074852917854,8.271935702433083],[6.5902927456479325,8.290342832552668],[6.579207389276953,8.304607475563516],[6.569464253097596,8.316076291373367],[6.562195930622517,8.324575381334869],[6.560853754725404,8.326140485630269],[6.549309166548517,8.34041411678338],[6.539356416258105,8.354139193870324],[6.537791259062896,8.35629739329075],[6.530585405725402,8.361996154416278],[6.526161977260968,8.365492065903577],[6.512971907755406,8.377941883159373],[6.504602170151386,8.388697256040706],[6.501663667329961,8.392438386067633],[6.501663667579605,8.392540946215227],[6.501663667081383,8.39259892186611],[6.501668061224126,8.392670300282274],[6.493927112881145,8.39949273739035],[6.482939892165772,8.405445625797501],[6.468207009411947,8.413815342623908],[6.455712592916524,8.420905308432898],[6.4496571095630575,8.425012149108763],[6.443838020020337,8.428954038507039],[6.44291501644154,8.429663025444414],[6.43403244554564,8.436503271475194],[6.431455056281159,8.44854278877307],[6.4254843846933465,8.464791775123851],[6.421493443849863,8.476733280886013],[6.419977354746355,8.48126820904955],[6.415313116869624,8.492879691522388],[6.41281156684713,8.502083251728322],[6.410082634031326,8.512116235672618],[6.40440172639625,8.532057341357698],[6.399327299088359,8.545069008449591],[6.395978472677564,8.553652737072936],[6.392763433632976,8.569165976533446],[6.3912384530255615,8.572728828266426],[6.3889821575439525,8.577995033217547],[6.38238713398581,8.58434026078868],[6.382391599786124,8.584509757136061],[6.382391599980391,8.584567725337777],[6.382364882813408,8.584647988735872],[6.382347016574862,8.584701499099983],[6.382329152163849,8.584750504922912],[6.382297967883598,8.584844187460446],[6.380585657432728,8.59002566426205],[6.3790874460091205,8.594547210085384],[6.373567025127174,8.601003919728223],[6.370476869825291,8.604611345895133],[6.3681135825219455,8.60812067691848],[6.3637124146089,8.614648840834988],[6.362285476520991,8.616793604385853],[6.357710515945133,8.623669529324545],[6.357153087225088,8.624503447573387],[6.357063877335292,8.6246371995345],[6.356814185113681,8.625011787878902],[6.356725055863595,8.625149962470603],[6.3517620314188745,8.632382668909788],[6.348168036474922,8.638674453376414],[6.33841147726502,8.649220223833426],[6.324980694079084,8.661219628885643],[6.316098181466708,8.668751082870621],[6.307278008534353,8.679974605596707],[6.2912877331015045,8.690859331587234],[6.275721012548712,8.69897041145074],[6.261344827748792,8.709596401009012],[6.246446972611591,8.716307387851616],[6.235664867753534,8.720414250650496],[6.223937484997263,8.723615866428098],[6.210898994677428,8.725470857707693],[6.207733090960418,8.720891325955337],[6.202966318039263,8.711513844716816],[6.194181880729194,8.69643762715756],[6.1843138853253095,8.68599444679884],[6.175904010930351,8.679907711088127],[6.171155072272296,8.671685198973202],[6.168149662234255,8.656970137754211],[6.162062973180105,8.637461547565811],[6.153844814732725,8.61453285878208],[6.14975580563969,8.604455295338225],[6.146326798410173,8.592286395121421],[6.141707143611528,8.577830042604527],[6.138273650596848,8.565197388062476],[6.133814586191522,8.546357652709414],[6.13166524669533,8.527705218103797],[6.132757781755168,8.509463036123218],[6.129186004279746,8.488300192884845],[6.127834893772472,8.476095582455207],[6.1216278202674514,8.463512051048317],[6.123589839112336,8.442023594769768],[6.117913403478115,8.433586966620043],[6.1151175092991465,8.43201737265585],[6.1096774567314815,8.409503409076772],[6.109218144502789,8.408611582577398]]]},"properties":{"OBJECTID":1,"Shape_Leng":3.5749520027,"STATUS":"Member State","ADM1_CODE":2228,"ADM0_NAME":"Nigeria","STR2_YEAR":1000,"ADM2_NAME":"Lokoja","ADM0_CODE":182,"EXP2_YEAR":3000,"ADM2_CODE":22907,"DISP_AREA":"NO","ADM1_NAME":"Kogi","MASK_VAL":1,"Shape_Length":395045.7981853216,"Shape_Area":3396401337.8569827}}],"name":"lokoja_lga_boundary"}