{"type":"FeatureCollection","features":[{"type":"Feature","id":1,"geometry":{"type":"Point","coordinates":[6.6460010998263135,7.830845399639946]},"properties":{"F_id":"way/232835004","crossing_type":"bridge","priority":"Moderate"}},{"type":"Feature","id":2,"geometry":{"type":"Point","coordinates":[6.585369700381849,7.824858000233999]},"properties":{"F_id":"way/232835005","crossing_type":"bridge","priority":"Low"}},{"type":"Feature","id":3,"geometry":{"type":"Point","coordinates":[6.650843999812398,7.83242360009909]},"properties":{"F_id":"way/232835011","crossing_type":"bridge","priority":"Low"}},{"type":"Feature","id":4,"geometry":{"type":"Point","coordinates":[6.650874400160103,7.832263899971912]},"properties":{"F_id":"way/232835015","crossing_type":"bridge","priority":"Low"}},{"type":"Feature","id":5,"geometry":{"type":"Point","coordinates":[6.645957100120404,7.830993500114916]},"properties":{"F_id":"way/232835016","crossing_type":"bridge","priority":"Moderate"}},{"type":"Feature","id":6,"geometry":{"type":"Point","coordinates":[6.585349900105267,7.824695500316619]},"properties":{"F_id":"way/232835023","crossing_type":"bridge","priority":"Low"}},{"type":"Feature","id":7,"geometry":{"type":"Point","coordinates":[6.528812999890393,7.86444640025507]},"properties":{"F_id":"way/257191478","crossing_type":"bridge","priority":"Low"}},{"type":"Feature","id":8,"geometry":{"type":"Point","coordinates":[6.680430599647877,8.14813130001307]},"properties":{"F_id":"way/259940510","crossing_type":"bridge","priority":"Moderate"}},{"type":"Feature","id":9,"geometry":{"type":"Point","coordinates":[6.6915923002574464,7.8062880003216]},"properties":{"F_id":"way/280729095","crossing_type":"bridge","priority":"Moderate"}},{"type":"Feature","id":10,"geometry":{"type":"Point","coordinates":[6.222830999605909,8.625858199548643]},"properties":{"F_id":"way/380219531","crossing_type":"ford","priority":"Critical"}},{"type":"Feature","id":11,"geometry":{"type":"Point","coordinates":[6.474469299924768,8.068219099891836]},"properties":{"F_id":"way/383946003","crossing_type":"ford","priority":"Moderate"}},{"type":"Feature","id":12,"geometry":{"type":"Point","coordinates":[6.46179219964602,8.104373899711044]},"properties":{"F_id":"way/383946005","crossing_type":"ford","priority":"Moderate"}},{"type":"Feature","id":13,"geometry":{"type":"Point","coordinates":[6.691627499692293,7.806212700088145]},"properties":{"F_id":"way/570307528","crossing_type":"bridge","priority":"Moderate"}},{"type":"Feature","id":14,"geometry":{"type":"Point","coordinates":[6.729840699743241,7.786131300222606]},"properties":{"F_id":"way/570337615","crossing_type":"bridge","priority":"Moderate"}},{"type":"Feature","id":15,"geometry":{"type":"Point","coordinates":[6.729971599603387,7.786108799747854]},"properties":{"F_id":"way/570337616","crossing_type":"bridge","priority":"Moderate"}},{"type":"Feature","id":16,"geometry":{"type":"Point","coordinates":[6.743458400257524,7.73101519960506]},"properties":{"F_id":"way/571772579","crossing_type":"bridge","priority":"Moderate"}},{"type":"Feature","id":17,"geometry":{"type":"Point","coordinates":[6.749688700226084,7.843988299850108]},"properties":{"F_id":"way/595587777","crossing_type":"bridge","priority":"Moderate"}},{"type":"Feature","id":18,"geometry":{"type":"Point","coordinates":[6.749613700086139,7.843887599941836]},"properties":{"F_id":"way/595587779","crossing_type":"bridge","priority":"Moderate"}},{"type":"Feature","id":19,"geometry":{"type":"Point","coordinates":[6.755000000322175,7.939469899740163]},"properties":{"F_id":"way/610670019","crossing_type":"bridge","priority":"Moderate"}},{"type":"Feature","id":20,"geometry":{"type":"Point","coordinates":[6.418718899576899,8.411401599771425]},"properties":{"F_id":"way/632785849","crossing_type":"bridge","priority":"Low"}},{"type":"Feature","id":21,"geometry":{"type":"Point","coordinates":[6.296099200181536,8.623433600418675]},"properties":{"F_id":"way/636182167","crossing_type":"bridge","priority":"Low"}},{"type":"Feature","id":22,"geometry":{"type":"Point","coordinates":[6.391236600400416,8.56772339995165]},"properties":{"F_id":"way/638905001","crossing_type":"ford","priority":"Critical"}},{"type":"Feature","id":23,"geometry":{"type":"Point","coordinates":[6.713624899613765,8.097472900124403]},"properties":{"F_id":"way/654783258","crossing_type":"bridge","priority":"Low"}},{"type":"Feature","id":24,"geometry":{"type":"Point","coordinates":[6.6464671000823525,8.190638799743523]},"properties":{"F_id":"way/686026285","crossing_type":"bridge","priority":"Moderate"}},{"type":"Feature","id":25,"geometry":{"type":"Point","coordinates":[6.582658599961056,8.27908280015585]},"properties":{"F_id":"way/686048893","crossing_type":"bridge","priority":"Critical"}},{"type":"Feature","id":26,"geometry":{"type":"Point","coordinates":[6.749716900293957,7.84395540006678]},"properties":{"F_id":"way/853981020","crossing_type":"bridge","priority":"Moderate"}},{"type":"Feature","id":27,"geometry":{"type":"Point","coordinates":[6.749590199688517,7.843923899962014]},"properties":{"F_id":"way/853981021","crossing_type":"bridge","priority":"Moderate"}},{"type":"Feature","id":28,"geometry":{"type":"Point","coordinates":[6.664572399647143,7.91603600019271]},"properties":{"F_id":"way/1110877349","crossing_type":"bridge","priority":"Low"}},{"type":"Feature","id":29,"geometry":{"type":"Point","coordinates":[6.766459800423947,7.855019700137906]},"properties":{"F_id":"way/1122244762","crossing_type":"bridge","priority":"Critical"}},{"type":"Feature","id":30,"geometry":{"type":"Point","coordinates":[6.75483890029741,7.93950679976855]},"properties":{"F_id":"way/1290903460","crossing_type":"bridge","priority":"Moderate"}},{"type":"Feature","id":31,"geometry":{"type":"Point","coordinates":[6.726292000395812,7.792904199866946]},"properties":{"F_id":"way/1433387877","crossing_type":"bridge","priority":"Moderate"}},{"type":"Feature","id":32,"geometry":{"type":"Point","coordinates":[6.726310000102748,7.792835099551644]},"properties":{"F_id":"way/1433387879","crossing_type":"bridge","priority":"Moderate"}},{"type":"Feature","id":33,"geometry":{"type":"Point","coordinates":[6.651638199652534,7.883803500075729]},"properties":{"F_id":"node/2568163643","crossing_type":"ford","priority":"Moderate"}},{"type":"Feature","id":34,"geometry":{"type":"Point","coordinates":[6.608336900307388,7.852875300110828]},"properties":{"F_id":"node/2568163848","crossing_type":"ford","priority":"Moderate"}},{"type":"Feature","id":35,"geometry":{"type":"Point","coordinates":[6.664245999703266,7.828904600264057]},"properties":{"F_id":"node/3250351559","crossing_type":"ford","priority":"Moderate"}},{"type":"Feature","id":36,"geometry":{"type":"Point","coordinates":[6.334712900382603,8.59370300023377]},"properties":{"F_id":"node/3872451828","crossing_type":"ford","priority":"Moderate"}},{"type":"Feature","id":37,"geometry":{"type":"Point","coordinates":[6.7385231004518715,7.730426199863402]},"properties":{"F_id":"node/5494081048","crossing_type":"ford","priority":"Moderate"}},{"type":"Feature","id":38,"geometry":{"type":"Point","coordinates":[6.719178799720384,7.96315370020795]},"properties":{"F_id":"node/5973748909","crossing_type":"ford","priority":"Moderate"}},{"type":"Feature","id":39,"geometry":{"type":"Point","coordinates":[6.449120700126255,8.411087199831]},"properties":{"F_id":"node/5974273799","crossing_type":"ford","priority":"Moderate"}},{"type":"Feature","id":40,"geometry":{"type":"Point","coordinates":[6.764382100094746,8.009631299796487]},"properties":{"F_id":"node/5974435041","crossing_type":"ford","priority":"Moderate"}},{"type":"Feature","id":41,"geometry":{"type":"Point","coordinates":[6.756016699944379,8.008059199767088]},"properties":{"F_id":"node/5974507110","crossing_type":"ford","priority":"Moderate"}},{"type":"Feature","id":42,"geometry":{"type":"Point","coordinates":[6.7703407995760925,7.911337699874029]},"properties":{"F_id":"node/5974514055","crossing_type":"ford","priority":"Critical"}},{"type":"Feature","id":43,"geometry":{"type":"Point","coordinates":[6.511656400003485,8.349642200340577]},"properties":{"F_id":"node/5974572164","crossing_type":"ford","priority":"Critical"}},{"type":"Feature","id":44,"geometry":{"type":"Point","coordinates":[6.738297399776151,7.938356399818602]},"properties":{"F_id":"node/5974867237","crossing_type":"ford","priority":"Moderate"}},{"type":"Feature","id":45,"geometry":{"type":"Point","coordinates":[6.534615299999083,8.326782100296434]},"properties":{"F_id":"node/5974920205","crossing_type":"ford","priority":"Critical"}},{"type":"Feature","id":46,"geometry":{"type":"Point","coordinates":[6.515321700176279,8.327563199554032]},"properties":{"F_id":"node/5974920667","crossing_type":"ford","priority":"Moderate"}},{"type":"Feature","id":47,"geometry":{"type":"Point","coordinates":[6.760536199693157,7.907587899979332]},"properties":{"F_id":"node/5974942001","crossing_type":"ford","priority":"Moderate"}},{"type":"Feature","id":48,"geometry":{"type":"Point","coordinates":[6.520394999922742,8.35645659977131]},"properties":{"F_id":"node/5974956515","crossing_type":"ford","priority":"Critical"}},{"type":"Feature","id":49,"geometry":{"type":"Point","coordinates":[6.379355099918468,8.505476400192327]},"properties":{"F_id":"node/5975100721","crossing_type":"ford","priority":"Critical"}},{"type":"Feature","id":50,"geometry":{"type":"Point","coordinates":[6.507011600041089,8.343841200041187]},"properties":{"F_id":"node/5975102087","crossing_type":"ford","priority":"Moderate"}},{"type":"Feature","id":51,"geometry":{"type":"Point","coordinates":[6.352095100423636,8.545420299560744]},"properties":{"F_id":"node/5975379934","crossing_type":"ford","priority":"Moderate"}},{"type":"Feature","id":52,"geometry":{"type":"Point","coordinates":[6.498687799730349,8.330696800364272]},"properties":{"F_id":"node/5975460575","crossing_type":"ford","priority":"Moderate"}},{"type":"Feature","id":53,"geometry":{"type":"Point","coordinates":[6.327077800426539,8.615642899746613]},"properties":{"F_id":"node/5999196569","crossing_type":"ford","priority":"Moderate"}},{"type":"Feature","id":54,"geometry":{"type":"Point","coordinates":[6.314352999705123,8.617811199947575]},"properties":{"F_id":"node/5999196646","crossing_type":"ford","priority":"Moderate"}},{"type":"Feature","id":55,"geometry":{"type":"Point","coordinates":[6.319729000342487,8.602519199765446]},"properties":{"F_id":"node/5999489649","crossing_type":"ford","priority":"Moderate"}},{"type":"Feature","id":56,"geometry":{"type":"Point","coordinates":[6.326044399689169,8.60159960008896]},"properties":{"F_id":"node/5999489659","crossing_type":"ford","priority":"Moderate"}},{"type":"Feature","id":57,"geometry":{"type":"Point","coordinates":[6.302136200157574,8.620063999970792]},"properties":{"F_id":"node/5999489963","crossing_type":"ford","priority":"Moderate"}},{"type":"Feature","id":58,"geometry":{"type":"Point","coordinates":[6.721001300116216,7.740670600012949]},"properties":{"F_id":"node/6001389701","crossing_type":"ford","priority":"Moderate"}},{"type":"Feature","id":59,"geometry":{"type":"Point","coordinates":[6.737322800401935,7.731802899837587]},"properties":{"F_id":"node/6001389713","crossing_type":"ford","priority":"Moderate"}},{"type":"Feature","id":60,"geometry":{"type":"Point","coordinates":[6.191823899574376,8.58310929957123]},"properties":{"F_id":"node/6004879475","crossing_type":"ford","priority":"Moderate"}},{"type":"Feature","id":61,"geometry":{"type":"Point","coordinates":[6.380231699881999,8.505436100270764]},"properties":{"F_id":"node/6006070813","crossing_type":"ford","priority":"Critical"}},{"type":"Feature","id":62,"geometry":{"type":"Point","coordinates":[6.348749000423874,8.545389199869085]},"properties":{"F_id":"node/6024576494","crossing_type":"ford","priority":"Moderate"}},{"type":"Feature","id":63,"geometry":{"type":"Point","coordinates":[6.226779999621008,8.485957000174038]},"properties":{"F_id":"node/6025803548","crossing_type":"ford","priority":"Moderate"}},{"type":"Feature","id":64,"geometry":{"type":"Point","coordinates":[6.225761600029537,8.479120699911208]},"properties":{"F_id":"node/6026204102","crossing_type":"ford","priority":"Moderate"}},{"type":"Feature","id":65,"geometry":{"type":"Point","coordinates":[6.230921899823115,8.511768099791372]},"properties":{"F_id":"node/6026204341","crossing_type":"ford","priority":"Moderate"}},{"type":"Feature","id":66,"geometry":{"type":"Point","coordinates":[6.207693300002392,8.486665599971401]},"properties":{"F_id":"node/6026204463","crossing_type":"ford","priority":"Moderate"}},{"type":"Feature","id":67,"geometry":{"type":"Point","coordinates":[6.219385299551422,8.526210599853714]},"properties":{"F_id":"node/6026204682","crossing_type":"ford","priority":"Moderate"}},{"type":"Feature","id":68,"geometry":{"type":"Point","coordinates":[6.202571300253839,8.53323180013731]},"properties":{"F_id":"node/6030564077","crossing_type":"ford","priority":"Moderate"}},{"type":"Feature","id":69,"geometry":{"type":"Point","coordinates":[6.272925999716523,8.545913000200025]},"properties":{"F_id":"node/6030565321","crossing_type":"ford","priority":"Moderate"}},{"type":"Feature","id":70,"geometry":{"type":"Point","coordinates":[6.707878700317067,8.094194700297775]},"properties":{"F_id":"node/6095680805","crossing_type":"ford","priority":"Moderate"}},{"type":"Feature","id":71,"geometry":{"type":"Point","coordinates":[6.761537799865441,7.8932028000901315]},"properties":{"F_id":"node/6105931379","crossing_type":"ford","priority":"Critical"}},{"type":"Feature","id":72,"geometry":{"type":"Point","coordinates":[6.767377200416474,7.936673600193942]},"properties":{"F_id":"node/6131213102","crossing_type":"ford","priority":"Moderate"}},{"type":"Feature","id":73,"geometry":{"type":"Point","coordinates":[6.516255699551429,8.325543099730668]},"properties":{"F_id":"node/6430077994","crossing_type":"ford","priority":"Moderate"}},{"type":"Feature","id":74,"geometry":{"type":"Point","coordinates":[6.445629899821172,8.410979699960922]},"properties":{"F_id":"node/6430111650","crossing_type":"ford","priority":"Moderate"}},{"type":"Feature","id":75,"geometry":{"type":"Point","coordinates":[6.448905700166455,8.411087900226544]},"properties":{"F_id":"node/6430111651","crossing_type":"ford","priority":"Moderate"}},{"type":"Feature","id":76,"geometry":{"type":"Point","coordinates":[6.441023200203746,8.401612500299382]},"properties":{"F_id":"node/6430111652","crossing_type":"ford","priority":"Moderate"}},{"type":"Feature","id":77,"geometry":{"type":"Point","coordinates":[6.711251700141969,7.736504599920649]},"properties":{"F_id":"node/6579581365","crossing_type":"ford","priority":"Moderate"}},{"type":"Feature","id":78,"geometry":{"type":"Point","coordinates":[6.695964799829645,7.787643999635703]},"properties":{"F_id":"node/7962116103","crossing_type":"ford","priority":"Moderate"}},{"type":"Feature","id":79,"geometry":{"type":"Point","coordinates":[6.544594499808672,8.324644300284898]},"properties":{"F_id":"node/8753024752","crossing_type":"ford","priority":"High"}},{"type":"Feature","id":80,"geometry":{"type":"Point","coordinates":[6.577093799823095,7.940370199773138]},"properties":{"F_id":"node/10111724731","crossing_type":"ford","priority":"Moderate"}},{"type":"Feature","id":81,"geometry":{"type":"Point","coordinates":[6.691376800059018,7.892268599893613]},"properties":{"F_id":"node/10111812723","crossing_type":"ford","priority":"Moderate"}},{"type":"Feature","id":82,"geometry":{"type":"Point","coordinates":[6.596476500132548,7.844617300033103]},"properties":{"F_id":"node/10121139946","crossing_type":"ford","priority":"Moderate"}},{"type":"Feature","id":83,"geometry":{"type":"Point","coordinates":[6.577730300394168,7.964363599712655]},"properties":{"F_id":"node/10121241534","crossing_type":"ford","priority":"Low"}},{"type":"Feature","id":84,"geometry":{"type":"Point","coordinates":[6.583154299928134,7.9557526001145575]},"properties":{"F_id":"node/10121241559","crossing_type":"ford","priority":"Moderate"}},{"type":"Feature","id":85,"geometry":{"type":"Point","coordinates":[6.589495799569228,7.988683999829672]},"properties":{"F_id":"node/10121248771","crossing_type":"ford","priority":"Moderate"}},{"type":"Feature","id":86,"geometry":{"type":"Point","coordinates":[6.5833126995504445,7.987253699861982]},"properties":{"F_id":"node/10121248798","crossing_type":"ford","priority":"Moderate"}},{"type":"Feature","id":87,"geometry":{"type":"Point","coordinates":[6.58100820010372,7.9858951002248615]},"properties":{"F_id":"node/10121248843","crossing_type":"ford","priority":"Moderate"}},{"type":"Feature","id":88,"geometry":{"type":"Point","coordinates":[6.580740800231232,8.015283099615491]},"properties":{"F_id":"node/10121252287","crossing_type":"ford","priority":"Moderate"}},{"type":"Feature","id":89,"geometry":{"type":"Point","coordinates":[6.689229500415558,8.063109599576018]},"properties":{"F_id":"node/10125526281","crossing_type":"ford","priority":"Moderate"}},{"type":"Feature","id":90,"geometry":{"type":"Point","coordinates":[6.68633799984663,8.064928799784056]},"properties":{"F_id":"node/10125609640","crossing_type":"ford","priority":"Low"}},{"type":"Feature","id":91,"geometry":{"type":"Point","coordinates":[6.688525400053943,8.063743000248214]},"properties":{"F_id":"node/10125609658","crossing_type":"ford","priority":"Moderate"}},{"type":"Feature","id":92,"geometry":{"type":"Point","coordinates":[6.681612000192464,8.062193399908951]},"properties":{"F_id":"node/10125620493","crossing_type":"ford","priority":"Low"}},{"type":"Feature","id":93,"geometry":{"type":"Point","coordinates":[6.6822517002269946,8.062099099646572]},"properties":{"F_id":"node/10125620504","crossing_type":"ford","priority":"Low"}},{"type":"Feature","id":94,"geometry":{"type":"Point","coordinates":[6.691126900014533,8.060717200190139]},"properties":{"F_id":"node/10125724086","crossing_type":"ford","priority":"Moderate"}},{"type":"Feature","id":95,"geometry":{"type":"Point","coordinates":[6.679477399564362,8.062726100231329]},"properties":{"F_id":"node/10125724087","crossing_type":"ford","priority":"Low"}},{"type":"Feature","id":96,"geometry":{"type":"Point","coordinates":[6.684327300222274,8.064183999780202]},"properties":{"F_id":"node/10125724088","crossing_type":"ford","priority":"Moderate"}},{"type":"Feature","id":97,"geometry":{"type":"Point","coordinates":[6.688308299652404,8.076267799825093]},"properties":{"F_id":"node/10125724089","crossing_type":"ford","priority":"Moderate"}},{"type":"Feature","id":98,"geometry":{"type":"Point","coordinates":[6.685430400197722,8.075475900216746]},"properties":{"F_id":"node/10125724090","crossing_type":"ford","priority":"Low"}},{"type":"Feature","id":99,"geometry":{"type":"Point","coordinates":[6.680387099937021,8.073000500151814]},"properties":{"F_id":"node/10125724091","crossing_type":"ford","priority":"Low"}},{"type":"Feature","id":100,"geometry":{"type":"Point","coordinates":[6.68481480033089,8.067984799671722]},"properties":{"F_id":"node/10125724092","crossing_type":"ford","priority":"Moderate"}},{"type":"Feature","id":101,"geometry":{"type":"Point","coordinates":[6.647301499651265,8.05507759977878]},"properties":{"F_id":"node/10127594165","crossing_type":"ford","priority":"Low"}},{"type":"Feature","id":102,"geometry":{"type":"Point","coordinates":[6.645375900251527,8.059015700114513]},"properties":{"F_id":"node/10127594167","crossing_type":"ford","priority":"Low"}},{"type":"Feature","id":103,"geometry":{"type":"Point","coordinates":[6.73679439993151,7.916596099832934]},"properties":{"F_id":"node/10127932564","crossing_type":"ford","priority":"Moderate"}},{"type":"Feature","id":104,"geometry":{"type":"Point","coordinates":[6.646310100150519,7.845032200166844]},"properties":{"F_id":"node/10128259831","crossing_type":"ford","priority":"Moderate"}},{"type":"Feature","id":105,"geometry":{"type":"Point","coordinates":[6.654020000299703,7.867017599663846]},"properties":{"F_id":"node/10128263361","crossing_type":"ford","priority":"Moderate"}},{"type":"Feature","id":106,"geometry":{"type":"Point","coordinates":[6.650446000378487,7.88311740005974]},"properties":{"F_id":"node/10128263448","crossing_type":"ford","priority":"Moderate"}},{"type":"Feature","id":107,"geometry":{"type":"Point","coordinates":[6.741614399910456,7.943605799947277]},"properties":{"F_id":"node/10132776819","crossing_type":"ford","priority":"Moderate"}},{"type":"Feature","id":108,"geometry":{"type":"Point","coordinates":[6.7108092999065585,7.973225099919325]},"properties":{"F_id":"node/10132776825","crossing_type":"ford","priority":"Moderate"}},{"type":"Feature","id":109,"geometry":{"type":"Point","coordinates":[6.683039200403652,7.897148700348966]},"properties":{"F_id":"node/10132865219","crossing_type":"ford","priority":"Moderate"}},{"type":"Feature","id":110,"geometry":{"type":"Point","coordinates":[6.611938899562479,7.844708699762525]},"properties":{"F_id":"node/10132868229","crossing_type":"ford","priority":"Moderate"}},{"type":"Feature","id":111,"geometry":{"type":"Point","coordinates":[6.59955379967935,7.993118099569231]},"properties":{"F_id":"node/10135453464","crossing_type":"ford","priority":"Moderate"}},{"type":"Feature","id":112,"geometry":{"type":"Point","coordinates":[6.631890499778499,8.03620390021609]},"properties":{"F_id":"node/10137770403","crossing_type":"ford","priority":"Moderate"}},{"type":"Feature","id":113,"geometry":{"type":"Point","coordinates":[6.634211999814604,8.039823800159317]},"properties":{"F_id":"node/10137787244","crossing_type":"ford","priority":"Moderate"}},{"type":"Feature","id":114,"geometry":{"type":"Point","coordinates":[6.628454599821252,8.044399799616118]},"properties":{"F_id":"node/10137787287","crossing_type":"ford","priority":"Moderate"}},{"type":"Feature","id":115,"geometry":{"type":"Point","coordinates":[6.633553500052748,8.050393999645555]},"properties":{"F_id":"node/10137787327","crossing_type":"ford","priority":"Moderate"}},{"type":"Feature","id":116,"geometry":{"type":"Point","coordinates":[6.593208399618585,7.856230299615313]},"properties":{"F_id":"node/10147765306","crossing_type":"ford","priority":"Moderate"}},{"type":"Feature","id":117,"geometry":{"type":"Point","coordinates":[6.591907500178035,7.849686200009788]},"properties":{"F_id":"node/10147774632","crossing_type":"ford","priority":"Moderate"}},{"type":"Feature","id":118,"geometry":{"type":"Point","coordinates":[6.6134694000545915,7.861400300307425]},"properties":{"F_id":"node/10147775256","crossing_type":"ford","priority":"Low"}},{"type":"Feature","id":119,"geometry":{"type":"Point","coordinates":[6.588136999631591,7.843449900133355]},"properties":{"F_id":"node/10147872428","crossing_type":"ford","priority":"Moderate"}},{"type":"Feature","id":120,"geometry":{"type":"Point","coordinates":[6.575463300348322,7.847588400271858]},"properties":{"F_id":"node/10147914056","crossing_type":"ford","priority":"Moderate"}},{"type":"Feature","id":121,"geometry":{"type":"Point","coordinates":[6.575021700443151,7.848662000325856]},"properties":{"F_id":"node/10147914064","crossing_type":"ford","priority":"Moderate"}},{"type":"Feature","id":122,"geometry":{"type":"Point","coordinates":[6.572970899782123,7.8456933999149925]},"properties":{"F_id":"node/10147914065","crossing_type":"ford","priority":"Moderate"}},{"type":"Feature","id":123,"geometry":{"type":"Point","coordinates":[6.568830500350401,7.855469499821463]},"properties":{"F_id":"node/10147986407","crossing_type":"ford","priority":"Moderate"}},{"type":"Feature","id":124,"geometry":{"type":"Point","coordinates":[6.5698092999370585,7.841424799573591]},"properties":{"F_id":"node/10147986825","crossing_type":"ford","priority":"Moderate"}},{"type":"Feature","id":125,"geometry":{"type":"Point","coordinates":[6.585969699711028,7.85541459971895]},"properties":{"F_id":"node/10147986942","crossing_type":"ford","priority":"Moderate"}},{"type":"Feature","id":126,"geometry":{"type":"Point","coordinates":[6.5816214995899776,7.862405999583188]},"properties":{"F_id":"node/10147986943","crossing_type":"ford","priority":"Moderate"}},{"type":"Feature","id":127,"geometry":{"type":"Point","coordinates":[6.600500600434469,7.878085300065181]},"properties":{"F_id":"node/10149203238","crossing_type":"ford","priority":"Moderate"}},{"type":"Feature","id":128,"geometry":{"type":"Point","coordinates":[6.593408100223691,7.86932990007733]},"properties":{"F_id":"node/10149279354","crossing_type":"ford","priority":"Low"}},{"type":"Feature","id":129,"geometry":{"type":"Point","coordinates":[6.600788499925929,7.884422099967112]},"properties":{"F_id":"node/10149279553","crossing_type":"ford","priority":"Low"}},{"type":"Feature","id":130,"geometry":{"type":"Point","coordinates":[6.60238059972713,7.8719338997183]},"properties":{"F_id":"node/10149279643","crossing_type":"ford","priority":"Low"}},{"type":"Feature","id":131,"geometry":{"type":"Point","coordinates":[6.59186840035423,7.884332600066099]},"properties":{"F_id":"node/10150916460","crossing_type":"ford","priority":"Moderate"}},{"type":"Feature","id":132,"geometry":{"type":"Point","coordinates":[6.589794599622922,7.881119499691235]},"properties":{"F_id":"node/10150918042","crossing_type":"ford","priority":"Low"}},{"type":"Feature","id":133,"geometry":{"type":"Point","coordinates":[6.58785940005903,7.875891999590618]},"properties":{"F_id":"node/10150918093","crossing_type":"ford","priority":"Low"}},{"type":"Feature","id":134,"geometry":{"type":"Point","coordinates":[6.5794389002282605,7.866915699638292]},"properties":{"F_id":"node/10150952038","crossing_type":"ford","priority":"Moderate"}},{"type":"Feature","id":135,"geometry":{"type":"Point","coordinates":[6.577503199831681,7.865275800366994]},"properties":{"F_id":"node/10150952039","crossing_type":"ford","priority":"Moderate"}},{"type":"Feature","id":136,"geometry":{"type":"Point","coordinates":[6.577864800354426,7.863757100169742]},"properties":{"F_id":"node/10150952040","crossing_type":"ford","priority":"Moderate"}},{"type":"Feature","id":137,"geometry":{"type":"Point","coordinates":[6.582296900313373,7.865526399947885]},"properties":{"F_id":"node/10150952073","crossing_type":"ford","priority":"Moderate"}},{"type":"Feature","id":138,"geometry":{"type":"Point","coordinates":[6.657751399971086,7.911962700135349]},"properties":{"F_id":"node/10154201400","crossing_type":"ford","priority":"Moderate"}},{"type":"Feature","id":139,"geometry":{"type":"Point","coordinates":[6.631225300195148,7.8731327998870215]},"properties":{"F_id":"node/10155054123","crossing_type":"ford","priority":"Low"}},{"type":"Feature","id":140,"geometry":{"type":"Point","coordinates":[6.626049400062577,7.868799699846132]},"properties":{"F_id":"node/10155199697","crossing_type":"ford","priority":"Moderate"}},{"type":"Feature","id":141,"geometry":{"type":"Point","coordinates":[6.6253437998720885,7.874202599904604]},"properties":{"F_id":"node/10155209717","crossing_type":"ford","priority":"Low"}},{"type":"Feature","id":142,"geometry":{"type":"Point","coordinates":[6.61035230019925,7.864932899945398]},"properties":{"F_id":"node/10155209814","crossing_type":"ford","priority":"Moderate"}},{"type":"Feature","id":143,"geometry":{"type":"Point","coordinates":[6.635955800105363,7.879739699873189]},"properties":{"F_id":"node/10155210257","crossing_type":"ford","priority":"Low"}},{"type":"Feature","id":144,"geometry":{"type":"Point","coordinates":[6.628513000105598,7.871453199895745]},"properties":{"F_id":"node/10155210392","crossing_type":"ford","priority":"Moderate"}},{"type":"Feature","id":145,"geometry":{"type":"Point","coordinates":[6.623699399683235,7.8640676003906105]},"properties":{"F_id":"node/10155210641","crossing_type":"ford","priority":"Moderate"}},{"type":"Feature","id":146,"geometry":{"type":"Point","coordinates":[6.621953800003094,7.86286620025279]},"properties":{"F_id":"node/10155210649","crossing_type":"ford","priority":"Moderate"}},{"type":"Feature","id":147,"geometry":{"type":"Point","coordinates":[6.6247683004153055,7.866690000164688]},"properties":{"F_id":"node/10155211125","crossing_type":"ford","priority":"Moderate"}},{"type":"Feature","id":148,"geometry":{"type":"Point","coordinates":[6.621396399886343,7.84254119962785]},"properties":{"F_id":"node/10155211140","crossing_type":"ford","priority":"Moderate"}},{"type":"Feature","id":149,"geometry":{"type":"Point","coordinates":[6.633033099665072,7.874720200314695]},"properties":{"F_id":"node/10155211310","crossing_type":"ford","priority":"Low"}},{"type":"Feature","id":150,"geometry":{"type":"Point","coordinates":[6.631015699902593,7.86916360021183]},"properties":{"F_id":"node/10155211529","crossing_type":"ford","priority":"Moderate"}},{"type":"Feature","id":151,"geometry":{"type":"Point","coordinates":[6.640662499822367,7.904548200256524]},"properties":{"F_id":"node/10158912426","crossing_type":"ford","priority":"Moderate"}},{"type":"Feature","id":152,"geometry":{"type":"Point","coordinates":[6.6501299999499945,7.907164999723097]},"properties":{"F_id":"node/10158912602","crossing_type":"ford","priority":"Low"}},{"type":"Feature","id":153,"geometry":{"type":"Point","coordinates":[6.651713900038173,7.907693699951379]},"properties":{"F_id":"node/10158912612","crossing_type":"ford","priority":"Low"}},{"type":"Feature","id":154,"geometry":{"type":"Point","coordinates":[6.621438899952184,7.89975509958729]},"properties":{"F_id":"node/10158912836","crossing_type":"ford","priority":"Low"}},{"type":"Feature","id":155,"geometry":{"type":"Point","coordinates":[6.621192899603812,7.90342919957463]},"properties":{"F_id":"node/10158912846","crossing_type":"ford","priority":"Moderate"}},{"type":"Feature","id":156,"geometry":{"type":"Point","coordinates":[6.646953800239938,7.86130939961215]},"properties":{"F_id":"node/10159418818","crossing_type":"ford","priority":"Moderate"}},{"type":"Feature","id":157,"geometry":{"type":"Point","coordinates":[6.646918900195818,7.867198599680859]},"properties":{"F_id":"node/10159418879","crossing_type":"ford","priority":"Moderate"}},{"type":"Feature","id":158,"geometry":{"type":"Point","coordinates":[6.650120199579605,7.876149099890297]},"properties":{"F_id":"node/10159419052","crossing_type":"ford","priority":"Moderate"}},{"type":"Feature","id":159,"geometry":{"type":"Point","coordinates":[6.657332599990298,7.865466299612439]},"properties":{"F_id":"node/10159419127","crossing_type":"ford","priority":"Moderate"}},{"type":"Feature","id":160,"geometry":{"type":"Point","coordinates":[6.645974399776629,7.879832200307094]},"properties":{"F_id":"node/10159448516","crossing_type":"ford","priority":"Moderate"}},{"type":"Feature","id":161,"geometry":{"type":"Point","coordinates":[6.6463339003729,7.880101800292942]},"properties":{"F_id":"node/10159448517","crossing_type":"ford","priority":"Moderate"}},{"type":"Feature","id":162,"geometry":{"type":"Point","coordinates":[6.647240800161827,7.875053800398796]},"properties":{"F_id":"node/10159467353","crossing_type":"ford","priority":"Low"}},{"type":"Feature","id":163,"geometry":{"type":"Point","coordinates":[6.646942600169258,7.880570000406896]},"properties":{"F_id":"node/10159467484","crossing_type":"ford","priority":"Moderate"}},{"type":"Feature","id":164,"geometry":{"type":"Point","coordinates":[6.646549499678372,7.8679153001548086]},"properties":{"F_id":"node/10159467607","crossing_type":"ford","priority":"Moderate"}},{"type":"Feature","id":165,"geometry":{"type":"Point","coordinates":[6.652576400431064,7.8845435004451225]},"properties":{"F_id":"node/10159476826","crossing_type":"ford","priority":"Moderate"}},{"type":"Feature","id":166,"geometry":{"type":"Point","coordinates":[6.653429000146648,7.86420300019967]},"properties":{"F_id":"node/10159511041","crossing_type":"ford","priority":"Moderate"}},{"type":"Feature","id":167,"geometry":{"type":"Point","coordinates":[6.652598499852681,7.879912400173638]},"properties":{"F_id":"node/10159515629","crossing_type":"ford","priority":"Moderate"}},{"type":"Feature","id":168,"geometry":{"type":"Point","coordinates":[6.658341199672112,7.884248600282699]},"properties":{"F_id":"node/10159515779","crossing_type":"ford","priority":"Moderate"}},{"type":"Feature","id":169,"geometry":{"type":"Point","coordinates":[6.638021699852664,7.867248200106405]},"properties":{"F_id":"node/10159515879","crossing_type":"ford","priority":"Moderate"}},{"type":"Feature","id":170,"geometry":{"type":"Point","coordinates":[6.646091400017644,7.86669649982302]},"properties":{"F_id":"node/10159533719","crossing_type":"ford","priority":"Moderate"}},{"type":"Feature","id":171,"geometry":{"type":"Point","coordinates":[6.64346159971485,7.870757600270804]},"properties":{"F_id":"node/10159533720","crossing_type":"ford","priority":"Low"}},{"type":"Feature","id":172,"geometry":{"type":"Point","coordinates":[6.652947899753188,7.867857700338757]},"properties":{"F_id":"node/10159544592","crossing_type":"ford","priority":"Moderate"}},{"type":"Feature","id":173,"geometry":{"type":"Point","coordinates":[6.644778699714278,7.862938000361157]},"properties":{"F_id":"node/10159544657","crossing_type":"ford","priority":"Moderate"}},{"type":"Feature","id":174,"geometry":{"type":"Point","coordinates":[6.6451647000865925,7.863909799653508]},"properties":{"F_id":"node/10159544660","crossing_type":"ford","priority":"Moderate"}},{"type":"Feature","id":175,"geometry":{"type":"Point","coordinates":[6.6489922001029145,7.8731291001256976]},"properties":{"F_id":"node/10159544706","crossing_type":"ford","priority":"Moderate"}},{"type":"Feature","id":176,"geometry":{"type":"Point","coordinates":[6.64906739973906,7.873502199756302]},"properties":{"F_id":"node/10159544709","crossing_type":"ford","priority":"Moderate"}},{"type":"Feature","id":177,"geometry":{"type":"Point","coordinates":[6.652856099764401,7.876179500076549]},"properties":{"F_id":"node/10159544713","crossing_type":"ford","priority":"Moderate"}},{"type":"Feature","id":178,"geometry":{"type":"Point","coordinates":[6.636012399641892,7.872757100337831]},"properties":{"F_id":"node/10159606228","crossing_type":"ford","priority":"Low"}},{"type":"Feature","id":179,"geometry":{"type":"Point","coordinates":[6.647932699858084,7.873203399667852]},"properties":{"F_id":"node/10159606573","crossing_type":"ford","priority":"Low"}},{"type":"Feature","id":180,"geometry":{"type":"Point","coordinates":[6.639219999698889,7.862956400379184]},"properties":{"F_id":"node/10159606827","crossing_type":"ford","priority":"Moderate"}},{"type":"Feature","id":181,"geometry":{"type":"Point","coordinates":[6.646619700403121,7.865237600079108]},"properties":{"F_id":"node/10159606903","crossing_type":"ford","priority":"Moderate"}},{"type":"Feature","id":182,"geometry":{"type":"Point","coordinates":[6.646136700027526,7.874868500134628]},"properties":{"F_id":"node/10159607367","crossing_type":"ford","priority":"Low"}},{"type":"Feature","id":183,"geometry":{"type":"Point","coordinates":[6.649204199967572,7.925459000206289]},"properties":{"F_id":"node/10161966142","crossing_type":"ford","priority":"Low"}},{"type":"Feature","id":184,"geometry":{"type":"Point","coordinates":[6.644521100314434,7.916882099610871]},"properties":{"F_id":"node/10161966466","crossing_type":"ford","priority":"Moderate"}},{"type":"Feature","id":185,"geometry":{"type":"Point","coordinates":[6.649555599651138,7.91937670013969]},"properties":{"F_id":"node/10161966813","crossing_type":"ford","priority":"Moderate"}},{"type":"Feature","id":186,"geometry":{"type":"Point","coordinates":[6.6474768003223685,7.917503800171368]},"properties":{"F_id":"node/10161966829","crossing_type":"ford","priority":"Low"}},{"type":"Feature","id":187,"geometry":{"type":"Point","coordinates":[6.655780999816052,7.924615499948615]},"properties":{"F_id":"node/10161966959","crossing_type":"ford","priority":"Moderate"}},{"type":"Feature","id":188,"geometry":{"type":"Point","coordinates":[6.654887799656403,7.912704499804768]},"properties":{"F_id":"node/10161967003","crossing_type":"ford","priority":"Moderate"}},{"type":"Feature","id":189,"geometry":{"type":"Point","coordinates":[6.657502299873826,7.927410299614259]},"properties":{"F_id":"node/10161979052","crossing_type":"ford","priority":"Moderate"}},{"type":"Feature","id":190,"geometry":{"type":"Point","coordinates":[6.654682599779757,7.911141099593563]},"properties":{"F_id":"node/10161979176","crossing_type":"ford","priority":"Moderate"}},{"type":"Feature","id":191,"geometry":{"type":"Point","coordinates":[6.639666200265814,7.916699199643892]},"properties":{"F_id":"node/10161995011","crossing_type":"ford","priority":"Low"}},{"type":"Feature","id":192,"geometry":{"type":"Point","coordinates":[6.654464800208525,7.925470399879277]},"properties":{"F_id":"node/10162006199","crossing_type":"ford","priority":"Moderate"}},{"type":"Feature","id":193,"geometry":{"type":"Point","coordinates":[6.657867999981038,7.912453800294972]},"properties":{"F_id":"node/10162067321","crossing_type":"ford","priority":"Moderate"}},{"type":"Feature","id":194,"geometry":{"type":"Point","coordinates":[6.65367849986731,7.916425699576555]},"properties":{"F_id":"node/10162067390","crossing_type":"ford","priority":"Low"}},{"type":"Feature","id":195,"geometry":{"type":"Point","coordinates":[6.654693499929025,7.916363500351863]},"properties":{"F_id":"node/10162067391","crossing_type":"ford","priority":"Low"}},{"type":"Feature","id":196,"geometry":{"type":"Point","coordinates":[6.658156000032514,7.918102799786865]},"properties":{"F_id":"node/10162067500","crossing_type":"ford","priority":"Moderate"}},{"type":"Feature","id":197,"geometry":{"type":"Point","coordinates":[6.656132200094779,7.925032300449235]},"properties":{"F_id":"node/10162067637","crossing_type":"ford","priority":"Moderate"}},{"type":"Feature","id":198,"geometry":{"type":"Point","coordinates":[6.644494200150514,7.930199700100337]},"properties":{"F_id":"node/10162067867","crossing_type":"ford","priority":"Low"}},{"type":"Feature","id":199,"geometry":{"type":"Point","coordinates":[6.650869800220601,7.929763999694655]},"properties":{"F_id":"node/10162068117","crossing_type":"ford","priority":"Moderate"}},{"type":"Feature","id":200,"geometry":{"type":"Point","coordinates":[6.65564149964769,7.912701900065501]},"properties":{"F_id":"node/10162068364","crossing_type":"ford","priority":"Moderate"}},{"type":"Feature","id":201,"geometry":{"type":"Point","coordinates":[6.58728510005083,7.828420400047445]},"properties":{"F_id":"node/10162614338","crossing_type":"ford","priority":"Moderate"}},{"type":"Feature","id":202,"geometry":{"type":"Point","coordinates":[6.6744357002975985,7.891837200334857]},"properties":{"F_id":"node/10162864589","crossing_type":"ford","priority":"Low"}},{"type":"Feature","id":203,"geometry":{"type":"Point","coordinates":[6.673824200146716,7.8894142003513235]},"properties":{"F_id":"node/10162864597","crossing_type":"ford","priority":"Moderate"}},{"type":"Feature","id":204,"geometry":{"type":"Point","coordinates":[6.63155199974735,7.952760399907246]},"properties":{"F_id":"node/10163786688","crossing_type":"ford","priority":"Moderate"}},{"type":"Feature","id":205,"geometry":{"type":"Point","coordinates":[6.633617599994144,7.949392099733932]},"properties":{"F_id":"node/10163806440","crossing_type":"ford","priority":"Moderate"}},{"type":"Feature","id":206,"geometry":{"type":"Point","coordinates":[6.633580300160827,7.934168599978755]},"properties":{"F_id":"node/10163806645","crossing_type":"ford","priority":"Low"}},{"type":"Feature","id":207,"geometry":{"type":"Point","coordinates":[6.639489200024919,7.934345199743726]},"properties":{"F_id":"node/10163806662","crossing_type":"ford","priority":"Moderate"}},{"type":"Feature","id":208,"geometry":{"type":"Point","coordinates":[6.633247699877246,7.9300296999077515]},"properties":{"F_id":"node/10163806689","crossing_type":"ford","priority":"Moderate"}},{"type":"Feature","id":209,"geometry":{"type":"Point","coordinates":[6.6191043998906,7.936896799887017]},"properties":{"F_id":"node/10163806768","crossing_type":"ford","priority":"Moderate"}},{"type":"Feature","id":210,"geometry":{"type":"Point","coordinates":[6.627159000325628,7.937411599716489]},"properties":{"F_id":"node/10163830415","crossing_type":"ford","priority":"Moderate"}},{"type":"Feature","id":211,"geometry":{"type":"Point","coordinates":[6.620500900422149,7.937438800202363]},"properties":{"F_id":"node/10163830416","crossing_type":"ford","priority":"Moderate"}},{"type":"Feature","id":212,"geometry":{"type":"Point","coordinates":[6.625005099618546,7.9373212004143525]},"properties":{"F_id":"node/10163840109","crossing_type":"ford","priority":"Moderate"}},{"type":"Feature","id":213,"geometry":{"type":"Point","coordinates":[6.6302675000503255,7.939958099811659]},"properties":{"F_id":"node/10163840138","crossing_type":"ford","priority":"Moderate"}},{"type":"Feature","id":214,"geometry":{"type":"Point","coordinates":[6.625737500011265,7.939875199697733]},"properties":{"F_id":"node/10163840202","crossing_type":"ford","priority":"Moderate"}},{"type":"Feature","id":215,"geometry":{"type":"Point","coordinates":[6.632678499568611,7.947300899551583]},"properties":{"F_id":"node/10163840283","crossing_type":"ford","priority":"Moderate"}},{"type":"Feature","id":216,"geometry":{"type":"Point","coordinates":[6.62895349987251,7.936910099733095]},"properties":{"F_id":"node/10163871837","crossing_type":"ford","priority":"Moderate"}},{"type":"Feature","id":217,"geometry":{"type":"Point","coordinates":[6.636476899718907,7.932701000359157]},"properties":{"F_id":"node/10163889133","crossing_type":"ford","priority":"Moderate"}},{"type":"Feature","id":218,"geometry":{"type":"Point","coordinates":[6.635492899727877,7.936274000327481]},"properties":{"F_id":"node/10163889199","crossing_type":"ford","priority":"Moderate"}},{"type":"Feature","id":219,"geometry":{"type":"Point","coordinates":[6.619301399786498,7.93295570039875]},"properties":{"F_id":"node/10163889460","crossing_type":"ford","priority":"Low"}},{"type":"Feature","id":220,"geometry":{"type":"Point","coordinates":[6.628459999563034,7.932866800021295]},"properties":{"F_id":"node/10163889499","crossing_type":"ford","priority":"Low"}},{"type":"Feature","id":221,"geometry":{"type":"Point","coordinates":[6.632604700256995,7.933235399958494]},"properties":{"F_id":"node/10163889503","crossing_type":"ford","priority":"Low"}},{"type":"Feature","id":222,"geometry":{"type":"Point","coordinates":[6.6295113998011805,7.932906700168043]},"properties":{"F_id":"node/10163889538","crossing_type":"ford","priority":"Low"}},{"type":"Feature","id":223,"geometry":{"type":"Point","coordinates":[6.6300176996886355,7.92933979981543]},"properties":{"F_id":"node/10163889607","crossing_type":"ford","priority":"Low"}},{"type":"Feature","id":224,"geometry":{"type":"Point","coordinates":[6.638606799750774,7.9377283001504395]},"properties":{"F_id":"node/10163889770","crossing_type":"ford","priority":"Moderate"}},{"type":"Feature","id":225,"geometry":{"type":"Point","coordinates":[6.630133700376947,7.938227700039454]},"properties":{"F_id":"node/10163889822","crossing_type":"ford","priority":"Moderate"}},{"type":"Feature","id":226,"geometry":{"type":"Point","coordinates":[6.6158168996786655,7.978721700203292]},"properties":{"F_id":"node/10164794839","crossing_type":"ford","priority":"Moderate"}},{"type":"Feature","id":227,"geometry":{"type":"Point","coordinates":[6.624726599920348,7.969604899573204]},"properties":{"F_id":"node/10164794840","crossing_type":"ford","priority":"Moderate"}},{"type":"Feature","id":228,"geometry":{"type":"Point","coordinates":[6.628185199952211,7.95992279970008]},"properties":{"F_id":"node/10164794852","crossing_type":"ford","priority":"Moderate"}},{"type":"Feature","id":229,"geometry":{"type":"Point","coordinates":[6.622139400273679,7.972539999875885]},"properties":{"F_id":"node/10164794944","crossing_type":"ford","priority":"Moderate"}},{"type":"Feature","id":230,"geometry":{"type":"Point","coordinates":[6.653061600253177,7.9485564001831035]},"properties":{"F_id":"node/10166111541","crossing_type":"ford","priority":"Low"}},{"type":"Feature","id":231,"geometry":{"type":"Point","coordinates":[6.649813899930045,7.946846500036647]},"properties":{"F_id":"node/10166293977","crossing_type":"ford","priority":"Moderate"}},{"type":"Feature","id":232,"geometry":{"type":"Point","coordinates":[6.643137599874664,7.935680199768054]},"properties":{"F_id":"node/10166294588","crossing_type":"ford","priority":"Moderate"}},{"type":"Feature","id":233,"geometry":{"type":"Point","coordinates":[6.641395300003223,7.931732100118542]},"properties":{"F_id":"node/10166294707","crossing_type":"ford","priority":"Low"}},{"type":"Feature","id":234,"geometry":{"type":"Point","coordinates":[6.6511933002165975,7.93905200022873]},"properties":{"F_id":"node/10166294887","crossing_type":"ford","priority":"Moderate"}},{"type":"Feature","id":235,"geometry":{"type":"Point","coordinates":[6.640048300106468,7.854564900058627]},"properties":{"F_id":"node/10178480955","crossing_type":"ford","priority":"Moderate"}},{"type":"Feature","id":236,"geometry":{"type":"Point","coordinates":[6.640123599626463,7.855029499587763]},"properties":{"F_id":"node/10178481103","crossing_type":"ford","priority":"Moderate"}},{"type":"Feature","id":237,"geometry":{"type":"Point","coordinates":[6.639958599999699,7.855427999921115]},"properties":{"F_id":"node/10178481765","crossing_type":"ford","priority":"Moderate"}},{"type":"Feature","id":238,"geometry":{"type":"Point","coordinates":[6.637259499710733,7.858965899771832]},"properties":{"F_id":"node/10178481794","crossing_type":"ford","priority":"Moderate"}},{"type":"Feature","id":239,"geometry":{"type":"Point","coordinates":[6.641455299745974,7.852041599924779]},"properties":{"F_id":"node/10178481862","crossing_type":"ford","priority":"Moderate"}},{"type":"Feature","id":240,"geometry":{"type":"Point","coordinates":[6.668065599622133,7.8550539996015845]},"properties":{"F_id":"node/10180933529","crossing_type":"ford","priority":"Moderate"}},{"type":"Feature","id":241,"geometry":{"type":"Point","coordinates":[6.767971399737524,8.011280200197268]},"properties":{"F_id":"node/10185191077","crossing_type":"ford","priority":"Critical"}},{"type":"Feature","id":242,"geometry":{"type":"Point","coordinates":[6.737133699851752,7.842246200111827]},"properties":{"F_id":"node/10185191692","crossing_type":"ford","priority":"Moderate"}},{"type":"Feature","id":243,"geometry":{"type":"Point","coordinates":[6.768323899555892,7.980986799820821]},"properties":{"F_id":"node/10187772138","crossing_type":"ford","priority":"Critical"}},{"type":"Feature","id":244,"geometry":{"type":"Point","coordinates":[6.766736500200674,7.981403000260914]},"properties":{"F_id":"node/10187786335","crossing_type":"ford","priority":"Critical"}},{"type":"Feature","id":245,"geometry":{"type":"Point","coordinates":[6.691002600022888,8.085140300097965]},"properties":{"F_id":"node/10187899681","crossing_type":"ford","priority":"Moderate"}},{"type":"Feature","id":246,"geometry":{"type":"Point","coordinates":[6.623072799718145,7.829223500136069]},"properties":{"F_id":"node/10201309317","crossing_type":"ford","priority":"Moderate"}},{"type":"Feature","id":247,"geometry":{"type":"Point","coordinates":[6.716033900193514,8.078212900028667]},"properties":{"F_id":"node/10203840444","crossing_type":"ford","priority":"Moderate"}},{"type":"Feature","id":248,"geometry":{"type":"Point","coordinates":[6.703455499925765,8.069922099830823]},"properties":{"F_id":"node/10203870276","crossing_type":"ford","priority":"Moderate"}},{"type":"Feature","id":249,"geometry":{"type":"Point","coordinates":[6.705708400242366,8.071640700189139]},"properties":{"F_id":"node/10203872350","crossing_type":"ford","priority":"Moderate"}},{"type":"Feature","id":250,"geometry":{"type":"Point","coordinates":[6.709423099995164,8.07288280042262]},"properties":{"F_id":"node/10203872351","crossing_type":"ford","priority":"Moderate"}},{"type":"Feature","id":251,"geometry":{"type":"Point","coordinates":[6.742670799683058,7.7838480996407515]},"properties":{"F_id":"node/10207443979","crossing_type":"ford","priority":"Critical"}},{"type":"Feature","id":252,"geometry":{"type":"Point","coordinates":[6.725316200181971,7.9552960003584605]},"properties":{"F_id":"node/10210348171","crossing_type":"ford","priority":"Moderate"}},{"type":"Feature","id":253,"geometry":{"type":"Point","coordinates":[6.724883100125316,7.956221099773745]},"properties":{"F_id":"node/10210348172","crossing_type":"ford","priority":"Moderate"}},{"type":"Feature","id":254,"geometry":{"type":"Point","coordinates":[6.709190899798521,7.9532545995681625]},"properties":{"F_id":"node/10210382048","crossing_type":"ford","priority":"Moderate"}},{"type":"Feature","id":255,"geometry":{"type":"Point","coordinates":[6.70921339983811,7.953523399902583]},"properties":{"F_id":"node/10210382049","crossing_type":"ford","priority":"Moderate"}},{"type":"Feature","id":256,"geometry":{"type":"Point","coordinates":[6.705728199978126,7.958127100071697]},"properties":{"F_id":"node/10210388156","crossing_type":"ford","priority":"Moderate"}},{"type":"Feature","id":257,"geometry":{"type":"Point","coordinates":[6.713357400353117,7.961236299922305]},"properties":{"F_id":"node/10210388357","crossing_type":"ford","priority":"Moderate"}},{"type":"Feature","id":258,"geometry":{"type":"Point","coordinates":[6.7185782002956005,7.962572500444765]},"properties":{"F_id":"node/10210388393","crossing_type":"ford","priority":"Moderate"}},{"type":"Feature","id":259,"geometry":{"type":"Point","coordinates":[6.709326700388274,7.953367599895014]},"properties":{"F_id":"node/10210427783","crossing_type":"ford","priority":"Moderate"}},{"type":"Feature","id":260,"geometry":{"type":"Point","coordinates":[6.740434199981268,7.951648199814228]},"properties":{"F_id":"node/10216632285","crossing_type":"ford","priority":"Moderate"}},{"type":"Feature","id":261,"geometry":{"type":"Point","coordinates":[6.7243533995572875,7.9685683996559105]},"properties":{"F_id":"node/10216649298","crossing_type":"ford","priority":"Low"}},{"type":"Feature","id":262,"geometry":{"type":"Point","coordinates":[6.6923583003023595,8.052462800164285]},"properties":{"F_id":"node/10221974762","crossing_type":"ford","priority":"Moderate"}},{"type":"Feature","id":263,"geometry":{"type":"Point","coordinates":[6.693372099910219,8.053145300417157]},"properties":{"F_id":"node/10221974814","crossing_type":"ford","priority":"Moderate"}},{"type":"Feature","id":264,"geometry":{"type":"Point","coordinates":[6.657733199658842,7.8801773003165065]},"properties":{"F_id":"node/10224342682","crossing_type":"ford","priority":"Moderate"}},{"type":"Feature","id":265,"geometry":{"type":"Point","coordinates":[6.656800299988582,7.878659100289736]},"properties":{"F_id":"node/10224401045","crossing_type":"ford","priority":"Low"}},{"type":"Feature","id":266,"geometry":{"type":"Point","coordinates":[6.673631100392754,7.883868700325736]},"properties":{"F_id":"node/10224401155","crossing_type":"ford","priority":"Moderate"}},{"type":"Feature","id":267,"geometry":{"type":"Point","coordinates":[6.669956400316495,7.871133499875204]},"properties":{"F_id":"node/10225578455","crossing_type":"ford","priority":"Moderate"}},{"type":"Feature","id":268,"geometry":{"type":"Point","coordinates":[6.6657396998016765,7.863468899914963]},"properties":{"F_id":"node/10225596736","crossing_type":"ford","priority":"Moderate"}},{"type":"Feature","id":269,"geometry":{"type":"Point","coordinates":[6.670169700020755,7.869312199920573]},"properties":{"F_id":"node/10225596737","crossing_type":"ford","priority":"Moderate"}},{"type":"Feature","id":270,"geometry":{"type":"Point","coordinates":[6.662414300401051,7.879650500059358]},"properties":{"F_id":"node/10225596738","crossing_type":"ford","priority":"Moderate"}},{"type":"Feature","id":271,"geometry":{"type":"Point","coordinates":[6.665115399768554,7.866487999753569]},"properties":{"F_id":"node/10225596739","crossing_type":"ford","priority":"Moderate"}},{"type":"Feature","id":272,"geometry":{"type":"Point","coordinates":[6.669594899795836,7.870737499919858]},"properties":{"F_id":"node/10225596740","crossing_type":"ford","priority":"Moderate"}},{"type":"Feature","id":273,"geometry":{"type":"Point","coordinates":[6.674025100115647,7.874260500332316]},"properties":{"F_id":"node/10225596741","crossing_type":"ford","priority":"Moderate"}},{"type":"Feature","id":274,"geometry":{"type":"Point","coordinates":[6.67129560024606,7.8722770999643]},"properties":{"F_id":"node/10225596742","crossing_type":"ford","priority":"Moderate"}},{"type":"Feature","id":275,"geometry":{"type":"Point","coordinates":[6.67397140004134,7.88862840019786]},"properties":{"F_id":"node/10225598897","crossing_type":"ford","priority":"Moderate"}},{"type":"Feature","id":276,"geometry":{"type":"Point","coordinates":[6.681286499703417,7.89670310009381]},"properties":{"F_id":"node/10225598909","crossing_type":"ford","priority":"Moderate"}},{"type":"Feature","id":277,"geometry":{"type":"Point","coordinates":[6.673822799727109,7.884813800067042]},"properties":{"F_id":"node/10225599088","crossing_type":"ford","priority":"Moderate"}},{"type":"Feature","id":278,"geometry":{"type":"Point","coordinates":[6.6882848000413215,7.891323799948876]},"properties":{"F_id":"node/10225599635","crossing_type":"ford","priority":"Moderate"}},{"type":"Feature","id":279,"geometry":{"type":"Point","coordinates":[6.646796200186574,7.835514800443778]},"properties":{"F_id":"node/10226692308","crossing_type":"ford","priority":"Moderate"}},{"type":"Feature","id":280,"geometry":{"type":"Point","coordinates":[6.64447179988162,7.839689999726107]},"properties":{"F_id":"node/10232082270","crossing_type":"ford","priority":"Moderate"}},{"type":"Feature","id":281,"geometry":{"type":"Point","coordinates":[6.741137300128504,7.9528768002771075]},"properties":{"F_id":"node/10235435098","crossing_type":"ford","priority":"Moderate"}},{"type":"Feature","id":282,"geometry":{"type":"Point","coordinates":[6.740373000085442,7.952477999615866]},"properties":{"F_id":"node/10235435101","crossing_type":"ford","priority":"Moderate"}},{"type":"Feature","id":283,"geometry":{"type":"Point","coordinates":[6.7498997001146614,8.007279100168496]},"properties":{"F_id":"node/10237510481","crossing_type":"ford","priority":"Moderate"}},{"type":"Feature","id":284,"geometry":{"type":"Point","coordinates":[6.747882699921166,8.007214000009176]},"properties":{"F_id":"node/10237510495","crossing_type":"ford","priority":"Moderate"}},{"type":"Feature","id":285,"geometry":{"type":"Point","coordinates":[6.730170000170092,7.931538699757392]},"properties":{"F_id":"node/10237590377","crossing_type":"ford","priority":"Moderate"}},{"type":"Feature","id":286,"geometry":{"type":"Point","coordinates":[6.746896799874925,7.947433499724567]},"properties":{"F_id":"node/10237597310","crossing_type":"ford","priority":"Low"}},{"type":"Feature","id":287,"geometry":{"type":"Point","coordinates":[6.744819400383428,7.917469899628513]},"properties":{"F_id":"node/10237648894","crossing_type":"ford","priority":"Moderate"}},{"type":"Feature","id":288,"geometry":{"type":"Point","coordinates":[6.745949099568938,7.944271799950997]},"properties":{"F_id":"node/10237770158","crossing_type":"ford","priority":"Moderate"}},{"type":"Feature","id":289,"geometry":{"type":"Point","coordinates":[6.745871000173179,7.944863600413517]},"properties":{"F_id":"node/10237770161","crossing_type":"ford","priority":"Moderate"}},{"type":"Feature","id":290,"geometry":{"type":"Point","coordinates":[6.659340699657532,7.9224294996933144]},"properties":{"F_id":"node/10239737497","crossing_type":"ford","priority":"Moderate"}},{"type":"Feature","id":291,"geometry":{"type":"Point","coordinates":[6.636329800379613,7.821365599752456]},"properties":{"F_id":"node/10242556161","crossing_type":"ford","priority":"Moderate"}},{"type":"Feature","id":292,"geometry":{"type":"Point","coordinates":[6.639139900210776,7.824615500161965]},"properties":{"F_id":"node/10242556180","crossing_type":"ford","priority":"Moderate"}},{"type":"Feature","id":293,"geometry":{"type":"Point","coordinates":[6.745972899662991,7.859606199674566]},"properties":{"F_id":"node/10255734754","crossing_type":"ford","priority":"Moderate"}},{"type":"Feature","id":294,"geometry":{"type":"Point","coordinates":[6.769546900338317,7.8761192002447125]},"properties":{"F_id":"node/10260177666","crossing_type":"ford","priority":"Critical"}},{"type":"Feature","id":295,"geometry":{"type":"Point","coordinates":[6.769994499750216,7.87798379967815]},"properties":{"F_id":"node/10261037990","crossing_type":"ford","priority":"Critical"}},{"type":"Feature","id":296,"geometry":{"type":"Point","coordinates":[6.7061045997130035,7.8653665999439895]},"properties":{"F_id":"node/10262262680","crossing_type":"ford","priority":"Moderate"}},{"type":"Feature","id":297,"geometry":{"type":"Point","coordinates":[6.705169599687928,7.87610180042303]},"properties":{"F_id":"node/10262397023","crossing_type":"ford","priority":"Moderate"}},{"type":"Feature","id":298,"geometry":{"type":"Point","coordinates":[6.702010099561218,7.8797391998064725]},"properties":{"F_id":"node/10262446515","crossing_type":"ford","priority":"Moderate"}},{"type":"Feature","id":299,"geometry":{"type":"Point","coordinates":[6.7168243997706565,7.873354899659667]},"properties":{"F_id":"node/10262497179","crossing_type":"ford","priority":"Low"}},{"type":"Feature","id":300,"geometry":{"type":"Point","coordinates":[6.714434299781533,7.8681503002136495]},"properties":{"F_id":"node/10262497204","crossing_type":"ford","priority":"Moderate"}},{"type":"Feature","id":301,"geometry":{"type":"Point","coordinates":[6.688695499713528,7.775608300185531]},"properties":{"F_id":"node/10266040510","crossing_type":"ford","priority":"Moderate"}},{"type":"Feature","id":302,"geometry":{"type":"Point","coordinates":[6.757009699554381,7.843150999618499]},"properties":{"F_id":"node/10267093612","crossing_type":"ford","priority":"Critical"}},{"type":"Feature","id":303,"geometry":{"type":"Point","coordinates":[6.716060899950299,7.738075399863281]},"properties":{"F_id":"node/10267785009","crossing_type":"ford","priority":"Moderate"}},{"type":"Feature","id":304,"geometry":{"type":"Point","coordinates":[6.712500299931167,7.737993400033969]},"properties":{"F_id":"node/10267789033","crossing_type":"ford","priority":"Moderate"}},{"type":"Feature","id":305,"geometry":{"type":"Point","coordinates":[6.760880200203891,7.821129300158057]},"properties":{"F_id":"node/10269334327","crossing_type":"ford","priority":"Critical"}},{"type":"Feature","id":306,"geometry":{"type":"Point","coordinates":[6.762001499914282,7.821382199626505]},"properties":{"F_id":"node/10269343826","crossing_type":"ford","priority":"Critical"}},{"type":"Feature","id":307,"geometry":{"type":"Point","coordinates":[6.760693099726309,7.825703599644537]},"properties":{"F_id":"node/10269344009","crossing_type":"ford","priority":"Critical"}},{"type":"Feature","id":308,"geometry":{"type":"Point","coordinates":[6.700428999875878,7.789788399857753]},"properties":{"F_id":"node/10269919111","crossing_type":"ford","priority":"Moderate"}},{"type":"Feature","id":309,"geometry":{"type":"Point","coordinates":[6.695389300239418,7.784854300129969]},"properties":{"F_id":"node/10271152155","crossing_type":"ford","priority":"Moderate"}},{"type":"Feature","id":310,"geometry":{"type":"Point","coordinates":[6.693450700330466,7.782426400119131]},"properties":{"F_id":"node/10271176827","crossing_type":"ford","priority":"Moderate"}},{"type":"Feature","id":311,"geometry":{"type":"Point","coordinates":[6.737517500420082,7.842757900167749]},"properties":{"F_id":"node/10273648121","crossing_type":"ford","priority":"Moderate"}},{"type":"Feature","id":312,"geometry":{"type":"Point","coordinates":[6.774485000302215,7.822721399843576]},"properties":{"F_id":"node/10273762258","crossing_type":"ford","priority":"Critical"}},{"type":"Feature","id":313,"geometry":{"type":"Point","coordinates":[6.772634400115421,7.8408630999287485]},"properties":{"F_id":"node/10273762259","crossing_type":"ford","priority":"Critical"}},{"type":"Feature","id":314,"geometry":{"type":"Point","coordinates":[6.711769300155484,7.866741000169955]},"properties":{"F_id":"node/10276465345","crossing_type":"ford","priority":"Moderate"}},{"type":"Feature","id":315,"geometry":{"type":"Point","coordinates":[6.708787399876125,7.866625500165108]},"properties":{"F_id":"node/10276465371","crossing_type":"ford","priority":"Moderate"}},{"type":"Feature","id":316,"geometry":{"type":"Point","coordinates":[6.6758697998099,7.814853400196888]},"properties":{"F_id":"node/10276481973","crossing_type":"ford","priority":"Moderate"}},{"type":"Feature","id":317,"geometry":{"type":"Point","coordinates":[6.70353150007646,7.8645719000810255]},"properties":{"F_id":"node/10276507017","crossing_type":"ford","priority":"Moderate"}},{"type":"Feature","id":318,"geometry":{"type":"Point","coordinates":[6.701922599889687,7.863464299865056]},"properties":{"F_id":"node/10276507030","crossing_type":"ford","priority":"Moderate"}},{"type":"Feature","id":319,"geometry":{"type":"Point","coordinates":[6.739925200034187,7.844139600151012]},"properties":{"F_id":"node/10279635446","crossing_type":"ford","priority":"Moderate"}}],"name":"lokoja_bridges_fords"}