{"type":"FeatureCollection","features":[{"type":"Feature","id":1,"geometry":{"type":"Point","coordinates":[6.749498600272654,7.810051999741654]},"properties":{"F_id":"way/339999394","name":null,"priority":"High"}},{"type":"Feature","id":2,"geometry":{"type":"Point","coordinates":[6.749497760124294,7.8097808390598615]},"properties":{"F_id":"way/339999394","name":null,"priority":"Critical"}},{"type":"Feature","id":3,"geometry":{"type":"Point","coordinates":[6.749496919931768,7.8095096774713175]},"properties":{"F_id":"way/339999394","name":null,"priority":"Critical"}},{"type":"Feature","id":4,"geometry":{"type":"Point","coordinates":[6.223050802278088,8.625806614255378]},"properties":{"F_id":"way/380219531","name":null,"priority":"High"}},{"type":"Feature","id":5,"geometry":{"type":"Point","coordinates":[6.7495148002533725,7.810162899874866]},"properties":{"F_id":"way/555602080","name":null,"priority":"Critical"}},{"type":"Feature","id":6,"geometry":{"type":"Point","coordinates":[6.749546900006062,7.810273200446832]},"properties":{"F_id":"way/555602080","name":null,"priority":"Critical"}},{"type":"Feature","id":7,"geometry":{"type":"Point","coordinates":[6.749498600272654,7.810051999741654]},"properties":{"F_id":"way/555602081","name":null,"priority":"High"}},{"type":"Feature","id":8,"geometry":{"type":"Point","coordinates":[6.7495148002533725,7.810162899874866]},"properties":{"F_id":"way/555602081","name":null,"priority":"Critical"}},{"type":"Feature","id":9,"geometry":{"type":"Point","coordinates":[6.749498600272654,7.810051999741654]},"properties":{"F_id":"way/555602082","name":null,"priority":"High"}},{"type":"Feature","id":10,"geometry":{"type":"Point","coordinates":[6.749546900006062,7.810273200446832]},"properties":{"F_id":"way/555602083","name":null,"priority":"Critical"}},{"type":"Feature","id":11,"geometry":{"type":"Point","coordinates":[6.7495148002533725,7.810162899874866]},"properties":{"F_id":"way/555602085","name":null,"priority":"Critical"}},{"type":"Feature","id":12,"geometry":{"type":"Point","coordinates":[6.749283400278283,7.816450500397693]},"properties":{"F_id":"way/555602094","name":null,"priority":"Critical"}},{"type":"Feature","id":13,"geometry":{"type":"Point","coordinates":[6.749216662903997,7.817531063932142]},"properties":{"F_id":"way/555602094","name":null,"priority":"Critical"}},{"type":"Feature","id":14,"geometry":{"type":"Point","coordinates":[6.749220619533555,7.817802194098082]},"properties":{"F_id":"way/555602094","name":null,"priority":"Critical"}},{"type":"Feature","id":15,"geometry":{"type":"Point","coordinates":[6.749226414395809,7.8180732951964425]},"properties":{"F_id":"way/555602094","name":null,"priority":"Critical"}},{"type":"Feature","id":16,"geometry":{"type":"Point","coordinates":[6.749232208314003,7.818344395384944]},"properties":{"F_id":"way/555602094","name":null,"priority":"Critical"}},{"type":"Feature","id":17,"geometry":{"type":"Point","coordinates":[6.7492288404272065,7.81861552264701]},"properties":{"F_id":"way/555602094","name":null,"priority":"High"}},{"type":"Feature","id":18,"geometry":{"type":"Point","coordinates":[6.749219597691203,7.818886421530894]},"properties":{"F_id":"way/555602094","name":null,"priority":"High"}},{"type":"Feature","id":19,"geometry":{"type":"Point","coordinates":[6.749198796036618,7.819156788748569]},"properties":{"F_id":"way/555602094","name":null,"priority":"Critical"}},{"type":"Feature","id":20,"geometry":{"type":"Point","coordinates":[6.749180822506252,7.819427266848624]},"properties":{"F_id":"way/555602094","name":null,"priority":"Critical"}},{"type":"Feature","id":21,"geometry":{"type":"Point","coordinates":[6.7491802730172425,7.819698429002848]},"properties":{"F_id":"way/555602094","name":null,"priority":"Critical"}},{"type":"Feature","id":22,"geometry":{"type":"Point","coordinates":[6.749179723482263,7.819969590249806]},"properties":{"F_id":"way/555602094","name":null,"priority":"Critical"}},{"type":"Feature","id":23,"geometry":{"type":"Point","coordinates":[6.749183633547903,7.820240699351714]},"properties":{"F_id":"way/555602094","name":null,"priority":"Critical"}},{"type":"Feature","id":24,"geometry":{"type":"Point","coordinates":[6.7491716290895845,7.81823062555881]},"properties":{"F_id":"way/555602096","name":null,"priority":"Critical"}},{"type":"Feature","id":25,"geometry":{"type":"Point","coordinates":[6.749215488536594,7.816605953094464]},"properties":{"F_id":"way/555602096","name":null,"priority":"Critical"}},{"type":"Feature","id":26,"geometry":{"type":"Point","coordinates":[6.749229800053922,7.816460199911219]},"properties":{"F_id":"way/555602096","name":null,"priority":"Critical"}},{"type":"Feature","id":27,"geometry":{"type":"Point","coordinates":[6.749546900006062,7.810273200446832]},"properties":{"F_id":"way/555602099","name":"Ahmadu Bello way","priority":"Critical"}},{"type":"Feature","id":28,"geometry":{"type":"Point","coordinates":[6.749522338157223,7.810543254161174]},"properties":{"F_id":"way/555602099","name":"Ahmadu Bello way","priority":"Critical"}},{"type":"Feature","id":29,"geometry":{"type":"Point","coordinates":[6.749497777133839,7.810813307866752]},"properties":{"F_id":"way/555602099","name":"Ahmadu Bello way","priority":"Critical"}},{"type":"Feature","id":30,"geometry":{"type":"Point","coordinates":[6.749380590481823,7.8140649567994345]},"properties":{"F_id":"way/555602099","name":"Ahmadu Bello way","priority":"High"}},{"type":"Feature","id":31,"geometry":{"type":"Point","coordinates":[6.749372461941052,7.814335998215602]},"properties":{"F_id":"way/555602099","name":"Ahmadu Bello way","priority":"High"}},{"type":"Feature","id":32,"geometry":{"type":"Point","coordinates":[6.749364334250954,7.814607038726399]},"properties":{"F_id":"way/555602099","name":"Ahmadu Bello way","priority":"Critical"}},{"type":"Feature","id":33,"geometry":{"type":"Point","coordinates":[6.7493562055891525,7.814878080129867]},"properties":{"F_id":"way/555602099","name":"Ahmadu Bello way","priority":"Critical"}},{"type":"Feature","id":34,"geometry":{"type":"Point","coordinates":[6.749346945919728,7.815149084767404]},"properties":{"F_id":"way/555602099","name":"Ahmadu Bello way","priority":"Critical"}},{"type":"Feature","id":35,"geometry":{"type":"Point","coordinates":[6.7493375266967055,7.815420084028645]},"properties":{"F_id":"way/555602099","name":"Ahmadu Bello way","priority":"Critical"}},{"type":"Feature","id":36,"geometry":{"type":"Point","coordinates":[6.749328107411522,7.815691083283031]},"properties":{"F_id":"way/555602099","name":"Ahmadu Bello way","priority":"Critical"}},{"type":"Feature","id":37,"geometry":{"type":"Point","coordinates":[6.7493123559559285,7.8159617866520765]},"properties":{"F_id":"way/555602099","name":"Ahmadu Bello way","priority":"Critical"}},{"type":"Feature","id":38,"geometry":{"type":"Point","coordinates":[6.74929631808917,7.81623247673474]},"properties":{"F_id":"way/555602099","name":"Ahmadu Bello way","priority":"Critical"}},{"type":"Feature","id":39,"geometry":{"type":"Point","coordinates":[6.749283400278283,7.816450500397693]},"properties":{"F_id":"way/555602099","name":"Ahmadu Bello way","priority":"Critical"}},{"type":"Feature","id":40,"geometry":{"type":"Point","coordinates":[6.749229800053922,7.816460199911219]},"properties":{"F_id":"way/555602103","name":"Ahmadu Bello way","priority":"Critical"}},{"type":"Feature","id":41,"geometry":{"type":"Point","coordinates":[6.749238012488469,7.816189161716835]},"properties":{"F_id":"way/555602103","name":"Ahmadu Bello way","priority":"Critical"}},{"type":"Feature","id":42,"geometry":{"type":"Point","coordinates":[6.749246235738472,7.815918123574046]},"properties":{"F_id":"way/555602103","name":"Ahmadu Bello way","priority":"Critical"}},{"type":"Feature","id":43,"geometry":{"type":"Point","coordinates":[6.749254458021505,7.815647085420065]},"properties":{"F_id":"way/555602103","name":"Ahmadu Bello way","priority":"Critical"}},{"type":"Feature","id":44,"geometry":{"type":"Point","coordinates":[6.749262688400954,7.815376047303159]},"properties":{"F_id":"way/555602103","name":"Ahmadu Bello way","priority":"Critical"}},{"type":"Feature","id":45,"geometry":{"type":"Point","coordinates":[6.749270918719755,7.815105009179891]},"properties":{"F_id":"way/555602103","name":"Ahmadu Bello way","priority":"Critical"}},{"type":"Feature","id":46,"geometry":{"type":"Point","coordinates":[6.749279148977907,7.81483397105022]},"properties":{"F_id":"way/555602103","name":"Ahmadu Bello way","priority":"Critical"}},{"type":"Feature","id":47,"geometry":{"type":"Point","coordinates":[6.749287378264225,7.814562933813215]},"properties":{"F_id":"way/555602103","name":"Ahmadu Bello way","priority":"Critical"}},{"type":"Feature","id":48,"geometry":{"type":"Point","coordinates":[6.749295608401085,7.814291895670779]},"properties":{"F_id":"way/555602103","name":"Ahmadu Bello way","priority":"High"}},{"type":"Feature","id":49,"geometry":{"type":"Point","coordinates":[6.7493038384773,7.814020857521979]},"properties":{"F_id":"way/555602103","name":"Ahmadu Bello way","priority":"High"}},{"type":"Feature","id":50,"geometry":{"type":"Point","coordinates":[6.749189437618926,7.81552353636955]},"properties":{"F_id":"way/571411942","name":null,"priority":"High"}},{"type":"Feature","id":51,"geometry":{"type":"Point","coordinates":[6.7492543997206935,7.815649000445468]},"properties":{"F_id":"way/571411942","name":null,"priority":"High"}},{"type":"Feature","id":52,"geometry":{"type":"Point","coordinates":[6.74926598148263,7.737095217175803]},"properties":{"F_id":"way/571731856","name":null,"priority":"Critical"}},{"type":"Feature","id":53,"geometry":{"type":"Point","coordinates":[6.749337288076664,7.736833551374753]},"properties":{"F_id":"way/571731856","name":null,"priority":"Critical"}},{"type":"Feature","id":54,"geometry":{"type":"Point","coordinates":[6.749372000287002,7.736713899580202]},"properties":{"F_id":"way/571731856","name":null,"priority":"Critical"}},{"type":"Feature","id":55,"geometry":{"type":"Point","coordinates":[6.74917349970162,7.818389900364086]},"properties":{"F_id":"way/571750716","name":null,"priority":"High"}},{"type":"Feature","id":56,"geometry":{"type":"Point","coordinates":[6.151661600423349,8.581180000144716]},"properties":{"F_id":"way/632347484","name":null,"priority":"Moderate"}},{"type":"Feature","id":57,"geometry":{"type":"Point","coordinates":[6.762875099363948,7.8712368534699975]},"properties":{"F_id":"way/632351228","name":null,"priority":"High"}},{"type":"Feature","id":58,"geometry":{"type":"Point","coordinates":[6.7631451183878974,7.87126906956513]},"properties":{"F_id":"way/632351228","name":null,"priority":"High"}},{"type":"Feature","id":59,"geometry":{"type":"Point","coordinates":[6.763415112881676,7.871301481511439]},"properties":{"F_id":"way/632351228","name":null,"priority":"Critical"}},{"type":"Feature","id":60,"geometry":{"type":"Point","coordinates":[6.763685108372317,7.8713338933003145]},"properties":{"F_id":"way/632351228","name":null,"priority":"Critical"}},{"type":"Feature","id":61,"geometry":{"type":"Point","coordinates":[6.763955167115304,7.871365683384918]},"properties":{"F_id":"way/632351228","name":null,"priority":"Critical"}},{"type":"Feature","id":62,"geometry":{"type":"Point","coordinates":[6.764226185718083,7.871388045388591]},"properties":{"F_id":"way/632351228","name":null,"priority":"Critical"}},{"type":"Feature","id":63,"geometry":{"type":"Point","coordinates":[6.764497204394213,7.871410408128956]},"properties":{"F_id":"way/632351228","name":null,"priority":"Critical"}},{"type":"Feature","id":64,"geometry":{"type":"Point","coordinates":[6.764768223153378,7.8714327697982425]},"properties":{"F_id":"way/632351228","name":null,"priority":"Critical"}},{"type":"Feature","id":65,"geometry":{"type":"Point","coordinates":[6.765039241990727,7.871455131300335]},"properties":{"F_id":"way/632351228","name":null,"priority":"Critical"}},{"type":"Feature","id":66,"geometry":{"type":"Point","coordinates":[6.765310261807881,7.871477493543944]},"properties":{"F_id":"way/632351228","name":null,"priority":"Critical"}},{"type":"Feature","id":67,"geometry":{"type":"Point","coordinates":[6.765581434433491,7.8714979130608125]},"properties":{"F_id":"way/632351228","name":null,"priority":"Critical"}},{"type":"Feature","id":68,"geometry":{"type":"Point","coordinates":[6.765852610998068,7.871518288139329]},"properties":{"F_id":"way/632351228","name":null,"priority":"Critical"}},{"type":"Feature","id":69,"geometry":{"type":"Point","coordinates":[6.766123787638359,7.871538663049724]},"properties":{"F_id":"way/632351228","name":null,"priority":"Critical"}},{"type":"Feature","id":70,"geometry":{"type":"Point","coordinates":[6.766394615041687,7.871562987760585]},"properties":{"F_id":"way/632351228","name":null,"priority":"Critical"}},{"type":"Feature","id":71,"geometry":{"type":"Point","coordinates":[6.766665173405432,7.87159033801698]},"properties":{"F_id":"way/632351228","name":null,"priority":"Critical"}},{"type":"Feature","id":72,"geometry":{"type":"Point","coordinates":[6.766935731848565,7.87161768901244]},"properties":{"F_id":"way/632351228","name":null,"priority":"Critical"}},{"type":"Feature","id":73,"geometry":{"type":"Point","coordinates":[6.767206291287254,7.8716450389440205]},"properties":{"F_id":"way/632351228","name":null,"priority":"High"}},{"type":"Feature","id":74,"geometry":{"type":"Point","coordinates":[6.767476849903698,7.87167238870595]},"properties":{"F_id":"way/632351228","name":null,"priority":"High"}},{"type":"Feature","id":75,"geometry":{"type":"Point","coordinates":[6.768561803882003,7.871745525404781]},"properties":{"F_id":"way/632351228","name":null,"priority":"High"}},{"type":"Feature","id":76,"geometry":{"type":"Point","coordinates":[6.7688325297124345,7.871771176800361]},"properties":{"F_id":"way/632351228","name":null,"priority":"Critical"}},{"type":"Feature","id":77,"geometry":{"type":"Point","coordinates":[6.769101959894157,7.871805870950227]},"properties":{"F_id":"way/632351228","name":null,"priority":"High"}},{"type":"Feature","id":78,"geometry":{"type":"Point","coordinates":[6.7743689508269735,7.87320268279821]},"properties":{"F_id":"way/632351228","name":null,"priority":"High"}},{"type":"Feature","id":79,"geometry":{"type":"Point","coordinates":[6.774449002469315,7.872966013015354]},"properties":{"F_id":"way/632351228","name":null,"priority":"Critical"}},{"type":"Feature","id":80,"geometry":{"type":"Point","coordinates":[6.77451539855003,7.872705029924189]},"properties":{"F_id":"way/632351228","name":null,"priority":"Critical"}},{"type":"Feature","id":81,"geometry":{"type":"Point","coordinates":[6.775800271468601,7.867175910568188]},"properties":{"F_id":"way/632351229","name":null,"priority":"High"}},{"type":"Feature","id":82,"geometry":{"type":"Point","coordinates":[6.775793905412335,7.866905687312471]},"properties":{"F_id":"way/632351229","name":null,"priority":"High"}},{"type":"Feature","id":83,"geometry":{"type":"Point","coordinates":[6.775806178633933,7.866638353198693]},"properties":{"F_id":"way/632351229","name":null,"priority":"Critical"}},{"type":"Feature","id":84,"geometry":{"type":"Point","coordinates":[6.775900595773931,7.866385068120866]},"properties":{"F_id":"way/632351229","name":null,"priority":"Critical"}},{"type":"Feature","id":85,"geometry":{"type":"Point","coordinates":[6.776036080825066,7.866152806633412]},"properties":{"F_id":"way/632351229","name":null,"priority":"Critical"}},{"type":"Feature","id":86,"geometry":{"type":"Point","coordinates":[6.776264364247554,7.8660140789746045]},"properties":{"F_id":"way/632351229","name":null,"priority":"Critical"}},{"type":"Feature","id":87,"geometry":{"type":"Point","coordinates":[6.776514349772671,7.865913812341195]},"properties":{"F_id":"way/632351229","name":null,"priority":"High"}},{"type":"Feature","id":88,"geometry":{"type":"Point","coordinates":[6.776705395460552,7.865724674432605]},"properties":{"F_id":"way/632351229","name":null,"priority":"High"}},{"type":"Feature","id":89,"geometry":{"type":"Point","coordinates":[6.776843659421274,7.865492185876388]},"properties":{"F_id":"way/632351229","name":null,"priority":"Critical"}},{"type":"Feature","id":90,"geometry":{"type":"Point","coordinates":[6.776970521398729,7.865253224556486]},"properties":{"F_id":"way/632351229","name":null,"priority":"High"}},{"type":"Feature","id":91,"geometry":{"type":"Point","coordinates":[6.7771445270229025,7.8650494938453885]},"properties":{"F_id":"way/632351229","name":null,"priority":"Critical"}},{"type":"Feature","id":92,"geometry":{"type":"Point","coordinates":[6.7773836125509375,7.864939799799862]},"properties":{"F_id":"way/632351229","name":null,"priority":"High"}},{"type":"Feature","id":93,"geometry":{"type":"Point","coordinates":[6.7776286370479015,7.864862155046249]},"properties":{"F_id":"way/632351229","name":null,"priority":"High"}},{"type":"Feature","id":94,"geometry":{"type":"Point","coordinates":[6.777798651963618,7.864655336760661]},"properties":{"F_id":"way/632351229","name":null,"priority":"Critical"}},{"type":"Feature","id":95,"geometry":{"type":"Point","coordinates":[6.7778934207997885,7.864403916467111]},"properties":{"F_id":"way/632351229","name":null,"priority":"Critical"}},{"type":"Feature","id":96,"geometry":{"type":"Point","coordinates":[6.777968790348083,7.864152377151168]},"properties":{"F_id":"way/632351229","name":null,"priority":"Critical"}},{"type":"Feature","id":97,"geometry":{"type":"Point","coordinates":[6.7779834859360575,7.863881738042075]},"properties":{"F_id":"way/632351229","name":null,"priority":"High"}},{"type":"Feature","id":98,"geometry":{"type":"Point","coordinates":[6.77805803671792,7.863622701884001]},"properties":{"F_id":"way/632351229","name":null,"priority":"Critical"}},{"type":"Feature","id":99,"geometry":{"type":"Point","coordinates":[6.778163122588059,7.863377252062203]},"properties":{"F_id":"way/632351229","name":null,"priority":"Critical"}},{"type":"Feature","id":100,"geometry":{"type":"Point","coordinates":[6.778256321719055,7.8631447111706345]},"properties":{"F_id":"way/632351229","name":null,"priority":"Critical"}},{"type":"Feature","id":101,"geometry":{"type":"Point","coordinates":[6.778194289287779,7.862880693745094]},"properties":{"F_id":"way/632351229","name":null,"priority":"High"}},{"type":"Feature","id":102,"geometry":{"type":"Point","coordinates":[6.778309944278501,7.862112377701121]},"properties":{"F_id":"way/632351229","name":null,"priority":"Critical"}},{"type":"Feature","id":103,"geometry":{"type":"Point","coordinates":[6.778452588030523,7.86188152464912]},"properties":{"F_id":"way/632351229","name":null,"priority":"High"}},{"type":"Feature","id":104,"geometry":{"type":"Point","coordinates":[6.7786254462488,7.861672188771406]},"properties":{"F_id":"way/632351229","name":null,"priority":"Critical"}},{"type":"Feature","id":105,"geometry":{"type":"Point","coordinates":[6.778722801024208,7.861425791951872]},"properties":{"F_id":"way/632351229","name":null,"priority":"High"}},{"type":"Feature","id":106,"geometry":{"type":"Point","coordinates":[6.779018566287669,7.861027635288173]},"properties":{"F_id":"way/632351229","name":null,"priority":"Critical"}},{"type":"Feature","id":107,"geometry":{"type":"Point","coordinates":[6.779056655010453,7.860760576144676]},"properties":{"F_id":"way/632351229","name":null,"priority":"High"}},{"type":"Feature","id":108,"geometry":{"type":"Point","coordinates":[6.779172327719595,7.859425512066161]},"properties":{"F_id":"way/632351229","name":null,"priority":"High"}},{"type":"Feature","id":109,"geometry":{"type":"Point","coordinates":[6.779468376103673,7.85868026622269]},"properties":{"F_id":"way/632351229","name":null,"priority":"High"}},{"type":"Feature","id":110,"geometry":{"type":"Point","coordinates":[6.779525066793049,7.858420510226824]},"properties":{"F_id":"way/632351229","name":null,"priority":"High"}},{"type":"Feature","id":111,"geometry":{"type":"Point","coordinates":[6.222407705497784,8.623987596028536]},"properties":{"F_id":"way/632774133","name":null,"priority":"Moderate"}},{"type":"Feature","id":112,"geometry":{"type":"Point","coordinates":[6.468597825679247,8.40394598186126]},"properties":{"F_id":"way/632779065","name":null,"priority":"Moderate"}},{"type":"Feature","id":113,"geometry":{"type":"Point","coordinates":[6.4687679305611665,8.403734315009352]},"properties":{"F_id":"way/632779065","name":null,"priority":"Moderate"}},{"type":"Feature","id":114,"geometry":{"type":"Point","coordinates":[6.4692866481566815,8.403107195463413]},"properties":{"F_id":"way/632779065","name":null,"priority":"High"}},{"type":"Feature","id":115,"geometry":{"type":"Point","coordinates":[6.4797484836336805,8.397255979115313]},"properties":{"F_id":"way/632779065","name":null,"priority":"High"}},{"type":"Feature","id":116,"geometry":{"type":"Point","coordinates":[6.494168177349458,8.396812197021399]},"properties":{"F_id":"way/632779100","name":null,"priority":"High"}},{"type":"Feature","id":117,"geometry":{"type":"Point","coordinates":[6.494439915121419,8.396824917989978]},"properties":{"F_id":"way/632779100","name":null,"priority":"Moderate"}},{"type":"Feature","id":118,"geometry":{"type":"Point","coordinates":[6.494712106487043,8.396820985485922]},"properties":{"F_id":"way/632779100","name":null,"priority":"Moderate"}},{"type":"Feature","id":119,"geometry":{"type":"Point","coordinates":[6.4947312001580135,8.396820900020794]},"properties":{"F_id":"way/632779100","name":null,"priority":"Moderate"}},{"type":"Feature","id":120,"geometry":{"type":"Point","coordinates":[6.490649896074786,8.397864422789393]},"properties":{"F_id":"way/632779103","name":null,"priority":"Moderate"}},{"type":"Feature","id":121,"geometry":{"type":"Point","coordinates":[6.172531900013655,8.58597539976668]},"properties":{"F_id":"way/632804989","name":null,"priority":"Moderate"}},{"type":"Feature","id":122,"geometry":{"type":"Point","coordinates":[6.769438500178633,7.902439499906209]},"properties":{"F_id":"way/632816816","name":null,"priority":"High"}},{"type":"Feature","id":123,"geometry":{"type":"Point","coordinates":[6.767459000377311,7.980704833413174]},"properties":{"F_id":"way/632824380","name":null,"priority":"High"}},{"type":"Feature","id":124,"geometry":{"type":"Point","coordinates":[6.76771999323438,7.980780162750971]},"properties":{"F_id":"way/632824380","name":null,"priority":"Critical"}},{"type":"Feature","id":125,"geometry":{"type":"Point","coordinates":[6.767977276701485,7.980868196930194]},"properties":{"F_id":"way/632824380","name":null,"priority":"Critical"}},{"type":"Feature","id":126,"geometry":{"type":"Point","coordinates":[6.768234560318081,7.9809562309793645]},"properties":{"F_id":"way/632824380","name":null,"priority":"Critical"}},{"type":"Feature","id":127,"geometry":{"type":"Point","coordinates":[6.7684918385605,7.981044280234827]},"properties":{"F_id":"way/632824380","name":null,"priority":"Critical"}},{"type":"Feature","id":128,"geometry":{"type":"Point","coordinates":[6.769007325195103,7.981217650901488]},"properties":{"F_id":"way/632824380","name":null,"priority":"High"}},{"type":"Feature","id":129,"geometry":{"type":"Point","coordinates":[6.76926516687173,7.981304046869737]},"properties":{"F_id":"way/632824380","name":null,"priority":"Critical"}},{"type":"Feature","id":130,"geometry":{"type":"Point","coordinates":[6.769789474058508,7.981408254106993]},"properties":{"F_id":"way/632824380","name":null,"priority":"High"}},{"type":"Feature","id":131,"geometry":{"type":"Point","coordinates":[6.770060730580302,7.981387973989077]},"properties":{"F_id":"way/632824380","name":null,"priority":"High"}},{"type":"Feature","id":132,"geometry":{"type":"Point","coordinates":[6.774850174186719,7.981881967135353]},"properties":{"F_id":"way/632824380","name":null,"priority":"High"}},{"type":"Feature","id":133,"geometry":{"type":"Point","coordinates":[6.775116432463469,7.981937478351859]},"properties":{"F_id":"way/632824380","name":null,"priority":"Critical"}},{"type":"Feature","id":134,"geometry":{"type":"Point","coordinates":[6.775163166001406,7.981947221496019]},"properties":{"F_id":"way/632824380","name":null,"priority":"Critical"}},{"type":"Feature","id":135,"geometry":{"type":"Point","coordinates":[6.462822345253685,8.411741953273921]},"properties":{"F_id":"way/632873253","name":null,"priority":"Critical"}},{"type":"Feature","id":136,"geometry":{"type":"Point","coordinates":[6.462200551286756,8.412631715175536]},"properties":{"F_id":"way/632873253","name":null,"priority":"Critical"}},{"type":"Feature","id":137,"geometry":{"type":"Point","coordinates":[6.398808710853232,8.521709546263743]},"properties":{"F_id":"way/632881556","name":null,"priority":"Moderate"}},{"type":"Feature","id":138,"geometry":{"type":"Point","coordinates":[6.398552715964381,8.52176789425919]},"properties":{"F_id":"way/632881556","name":null,"priority":"Moderate"}},{"type":"Feature","id":139,"geometry":{"type":"Point","coordinates":[6.396118974996807,8.521725296970766]},"properties":{"F_id":"way/632881556","name":null,"priority":"Moderate"}},{"type":"Feature","id":140,"geometry":{"type":"Point","coordinates":[6.39585541120241,8.521787711038563]},"properties":{"F_id":"way/632881556","name":null,"priority":"Moderate"}},{"type":"Feature","id":141,"geometry":{"type":"Point","coordinates":[6.391892367840429,8.523766319335074]},"properties":{"F_id":"way/632881556","name":null,"priority":"Moderate"}},{"type":"Feature","id":142,"geometry":{"type":"Point","coordinates":[6.391780720181994,8.524013543031293]},"properties":{"F_id":"way/632881556","name":null,"priority":"Moderate"}},{"type":"Feature","id":143,"geometry":{"type":"Point","coordinates":[6.39156301574117,8.524061631984024]},"properties":{"F_id":"way/632881556","name":null,"priority":"Moderate"}},{"type":"Feature","id":144,"geometry":{"type":"Point","coordinates":[6.3878602773710575,8.514601095734731]},"properties":{"F_id":"way/632881556","name":null,"priority":"Moderate"}},{"type":"Feature","id":145,"geometry":{"type":"Point","coordinates":[6.385354732421724,8.513666558223253]},"properties":{"F_id":"way/632881556","name":null,"priority":"Moderate"}},{"type":"Feature","id":146,"geometry":{"type":"Point","coordinates":[6.385085478489516,8.513626155738299]},"properties":{"F_id":"way/632881556","name":null,"priority":"Moderate"}},{"type":"Feature","id":147,"geometry":{"type":"Point","coordinates":[6.384817523916409,8.5135790253018]},"properties":{"F_id":"way/632881556","name":null,"priority":"Moderate"}},{"type":"Feature","id":148,"geometry":{"type":"Point","coordinates":[6.384550058908753,8.513561129368604]},"properties":{"F_id":"way/632881556","name":null,"priority":"Moderate"}},{"type":"Feature","id":149,"geometry":{"type":"Point","coordinates":[6.766821889178979,7.978320766006734]},"properties":{"F_id":"way/632883269","name":null,"priority":"Moderate"}},{"type":"Feature","id":150,"geometry":{"type":"Point","coordinates":[6.7671453840121645,7.975440027152152]},"properties":{"F_id":"way/632883269","name":null,"priority":"High"}},{"type":"Feature","id":151,"geometry":{"type":"Point","coordinates":[6.767437891493248,7.974398713074275]},"properties":{"F_id":"way/632883269","name":null,"priority":"High"}},{"type":"Feature","id":152,"geometry":{"type":"Point","coordinates":[6.7676463795305795,7.9738978859773075]},"properties":{"F_id":"way/632883269","name":null,"priority":"High"}},{"type":"Feature","id":153,"geometry":{"type":"Point","coordinates":[6.767719244185016,7.973637053954222]},"properties":{"F_id":"way/632883269","name":null,"priority":"High"}},{"type":"Feature","id":154,"geometry":{"type":"Point","coordinates":[6.76854469976623,7.971649165171957]},"properties":{"F_id":"way/632883269","name":null,"priority":"High"}},{"type":"Feature","id":155,"geometry":{"type":"Point","coordinates":[6.768790201341002,7.971166016465185]},"properties":{"F_id":"way/632883269","name":null,"priority":"High"}},{"type":"Feature","id":156,"geometry":{"type":"Point","coordinates":[6.768891620417726,7.970914405526632]},"properties":{"F_id":"way/632883269","name":null,"priority":"High"}},{"type":"Feature","id":157,"geometry":{"type":"Point","coordinates":[6.769115036345219,7.970420160563644]},"properties":{"F_id":"way/632883269","name":null,"priority":"High"}},{"type":"Feature","id":158,"geometry":{"type":"Point","coordinates":[6.769348195715219,7.969930166367753]},"properties":{"F_id":"way/632883269","name":null,"priority":"High"}},{"type":"Feature","id":159,"geometry":{"type":"Point","coordinates":[6.770463817818219,7.968431983533037]},"properties":{"F_id":"way/632883269","name":null,"priority":"Critical"}},{"type":"Feature","id":160,"geometry":{"type":"Point","coordinates":[6.77105271673066,7.967868850093721]},"properties":{"F_id":"way/632883269","name":null,"priority":"Critical"}},{"type":"Feature","id":161,"geometry":{"type":"Point","coordinates":[6.771228185036524,7.967661847497292]},"properties":{"F_id":"way/632883269","name":null,"priority":"Critical"}},{"type":"Feature","id":162,"geometry":{"type":"Point","coordinates":[6.767064476898605,7.982205174494835]},"properties":{"F_id":"way/632883271","name":null,"priority":"High"}},{"type":"Feature","id":163,"geometry":{"type":"Point","coordinates":[6.767151352241874,7.982460675473224]},"properties":{"F_id":"way/632883271","name":null,"priority":"High"}},{"type":"Feature","id":164,"geometry":{"type":"Point","coordinates":[6.7673461144858535,7.983526008332866]},"properties":{"F_id":"way/632883271","name":null,"priority":"High"}},{"type":"Feature","id":165,"geometry":{"type":"Point","coordinates":[6.76764331052702,7.985079900834272]},"properties":{"F_id":"way/632883271","name":null,"priority":"Moderate"}},{"type":"Feature","id":166,"geometry":{"type":"Point","coordinates":[6.767940383604717,7.9858364971621]},"properties":{"F_id":"way/632883271","name":null,"priority":"Moderate"}},{"type":"Feature","id":167,"geometry":{"type":"Point","coordinates":[6.768282398550709,7.986574442075503]},"properties":{"F_id":"way/632883271","name":null,"priority":"Moderate"}},{"type":"Feature","id":168,"geometry":{"type":"Point","coordinates":[6.403838887423591,8.504085012892842]},"properties":{"F_id":"way/632907928","name":null,"priority":"Moderate"}},{"type":"Feature","id":169,"geometry":{"type":"Point","coordinates":[6.403850000104859,8.504355256139739]},"properties":{"F_id":"way/632907928","name":null,"priority":"Moderate"}},{"type":"Feature","id":170,"geometry":{"type":"Point","coordinates":[6.555509600169165,8.307322499578287]},"properties":{"F_id":"way/632926967","name":null,"priority":"High"}},{"type":"Feature","id":171,"geometry":{"type":"Point","coordinates":[6.375170312613368,8.543505764397807]},"properties":{"F_id":"way/636096501","name":null,"priority":"Moderate"}},{"type":"Feature","id":172,"geometry":{"type":"Point","coordinates":[6.37544091944735,8.543475353281572]},"properties":{"F_id":"way/636096501","name":null,"priority":"Moderate"}},{"type":"Feature","id":173,"geometry":{"type":"Point","coordinates":[6.38682910270267,8.550004241920144]},"properties":{"F_id":"way/636096501","name":null,"priority":"Moderate"}},{"type":"Feature","id":174,"geometry":{"type":"Point","coordinates":[6.387066358183208,8.550137327304734]},"properties":{"F_id":"way/636096501","name":null,"priority":"Moderate"}},{"type":"Feature","id":175,"geometry":{"type":"Point","coordinates":[6.387297381122062,8.55027530971939]},"properties":{"F_id":"way/636096501","name":null,"priority":"High"}},{"type":"Feature","id":176,"geometry":{"type":"Point","coordinates":[6.387372392957346,8.550535905115881]},"properties":{"F_id":"way/636096501","name":null,"priority":"Moderate"}},{"type":"Feature","id":177,"geometry":{"type":"Point","coordinates":[6.387952702941559,8.552340851075156]},"properties":{"F_id":"way/636096501","name":null,"priority":"Moderate"}},{"type":"Feature","id":178,"geometry":{"type":"Point","coordinates":[6.388062075308548,8.552589110980312]},"properties":{"F_id":"way/636096501","name":null,"priority":"Moderate"}},{"type":"Feature","id":179,"geometry":{"type":"Point","coordinates":[6.391736196081089,8.567194861592506]},"properties":{"F_id":"way/636358946","name":null,"priority":"Moderate"}},{"type":"Feature","id":180,"geometry":{"type":"Point","coordinates":[6.3917186164601185,8.567448274725715]},"properties":{"F_id":"way/636358946","name":null,"priority":"Moderate"}},{"type":"Feature","id":181,"geometry":{"type":"Point","coordinates":[6.387816692772919,8.560429351075411]},"properties":{"F_id":"way/636358949","name":null,"priority":"High"}},{"type":"Feature","id":182,"geometry":{"type":"Point","coordinates":[6.387846850715711,8.560693864581964]},"properties":{"F_id":"way/636358949","name":null,"priority":"Moderate"}},{"type":"Feature","id":183,"geometry":{"type":"Point","coordinates":[6.387786861179603,8.560953258691349]},"properties":{"F_id":"way/636358949","name":null,"priority":"Moderate"}},{"type":"Feature","id":184,"geometry":{"type":"Point","coordinates":[6.3882234290956825,8.559559556230276]},"properties":{"F_id":"way/636358950","name":null,"priority":"High"}},{"type":"Feature","id":185,"geometry":{"type":"Point","coordinates":[6.381874663578306,8.559552029023497]},"properties":{"F_id":"way/636360333","name":null,"priority":"Moderate"}},{"type":"Feature","id":186,"geometry":{"type":"Point","coordinates":[6.385359380191247,8.575821605827002]},"properties":{"F_id":"way/636360336","name":null,"priority":"Moderate"}},{"type":"Feature","id":187,"geometry":{"type":"Point","coordinates":[6.385591955450677,8.575962661871925]},"properties":{"F_id":"way/636360336","name":null,"priority":"Moderate"}},{"type":"Feature","id":188,"geometry":{"type":"Point","coordinates":[6.385825095570446,8.576102792728355]},"properties":{"F_id":"way/636360336","name":null,"priority":"Critical"}},{"type":"Feature","id":189,"geometry":{"type":"Point","coordinates":[6.386058247832302,8.576242902791588]},"properties":{"F_id":"way/636360336","name":null,"priority":"Critical"}},{"type":"Feature","id":190,"geometry":{"type":"Point","coordinates":[6.386291400286257,8.576383013667629]},"properties":{"F_id":"way/636360336","name":null,"priority":"High"}},{"type":"Feature","id":191,"geometry":{"type":"Point","coordinates":[6.38652455294469,8.576523123549274]},"properties":{"F_id":"way/636360336","name":null,"priority":"Critical"}},{"type":"Feature","id":192,"geometry":{"type":"Point","coordinates":[6.386774816820338,8.5766298302194]},"properties":{"F_id":"way/636360336","name":null,"priority":"Moderate"}},{"type":"Feature","id":193,"geometry":{"type":"Point","coordinates":[6.387025685401429,8.576735358018828]},"properties":{"F_id":"way/636360336","name":null,"priority":"Moderate"}},{"type":"Feature","id":194,"geometry":{"type":"Point","coordinates":[6.38727655416797,8.57684088479228]},"properties":{"F_id":"way/636360336","name":null,"priority":"High"}},{"type":"Feature","id":195,"geometry":{"type":"Point","coordinates":[6.3885862111915825,8.577179785049418]},"properties":{"F_id":"way/636360336","name":null,"priority":"Moderate"}},{"type":"Feature","id":196,"geometry":{"type":"Point","coordinates":[6.390893699629199,8.567805699597175]},"properties":{"F_id":"way/636360337","name":null,"priority":"Moderate"}},{"type":"Feature","id":197,"geometry":{"type":"Point","coordinates":[6.390893699629199,8.567805699597175]},"properties":{"F_id":"way/638905001","name":null,"priority":"Moderate"}},{"type":"Feature","id":198,"geometry":{"type":"Point","coordinates":[6.391165777294226,8.567806397667459]},"properties":{"F_id":"way/638905001","name":null,"priority":"Moderate"}},{"type":"Feature","id":199,"geometry":{"type":"Point","coordinates":[6.400842299849593,8.496672399770576]},"properties":{"F_id":"way/639678807","name":null,"priority":"Critical"}},{"type":"Feature","id":200,"geometry":{"type":"Point","coordinates":[6.400780699860796,8.497661900271336]},"properties":{"F_id":"way/639678814","name":null,"priority":"Moderate"}},{"type":"Feature","id":201,"geometry":{"type":"Point","coordinates":[6.481013010247128,8.396673881360368]},"properties":{"F_id":"way/643401582","name":null,"priority":"High"}},{"type":"Feature","id":202,"geometry":{"type":"Point","coordinates":[6.481768876681542,8.39696442944636]},"properties":{"F_id":"way/643401582","name":null,"priority":"High"}},{"type":"Feature","id":203,"geometry":{"type":"Point","coordinates":[6.761661250281883,7.893190307381584]},"properties":{"F_id":"way/651045078","name":null,"priority":"Critical"}},{"type":"Feature","id":204,"geometry":{"type":"Point","coordinates":[6.76193181934521,7.893162925743415]},"properties":{"F_id":"way/651045078","name":null,"priority":"Critical"}},{"type":"Feature","id":205,"geometry":{"type":"Point","coordinates":[6.762202525861477,7.893162223020672]},"properties":{"F_id":"way/651045078","name":null,"priority":"Critical"}},{"type":"Feature","id":206,"geometry":{"type":"Point","coordinates":[6.762473364643496,7.8931868144372315]},"properties":{"F_id":"way/651045078","name":null,"priority":"Critical"}},{"type":"Feature","id":207,"geometry":{"type":"Point","coordinates":[6.76274420260006,7.893211405682318]},"properties":{"F_id":"way/651045078","name":null,"priority":"High"}},{"type":"Feature","id":208,"geometry":{"type":"Point","coordinates":[6.775856316621895,7.935674566013126]},"properties":{"F_id":"way/654303084","name":null,"priority":"Critical"}},{"type":"Feature","id":209,"geometry":{"type":"Point","coordinates":[6.775672483798369,7.935873265191422]},"properties":{"F_id":"way/654303084","name":null,"priority":"Critical"}},{"type":"Feature","id":210,"geometry":{"type":"Point","coordinates":[6.775504937793569,7.9360837559005954]},"properties":{"F_id":"way/654303084","name":null,"priority":"Critical"}},{"type":"Feature","id":211,"geometry":{"type":"Point","coordinates":[6.771708005982647,7.936325756117176]},"properties":{"F_id":"way/654303084","name":null,"priority":"Critical"}},{"type":"Feature","id":212,"geometry":{"type":"Point","coordinates":[6.771443214191105,7.936365688253919]},"properties":{"F_id":"way/654303084","name":null,"priority":"Critical"}},{"type":"Feature","id":213,"geometry":{"type":"Point","coordinates":[6.771176624131016,7.936312676555054]},"properties":{"F_id":"way/654303084","name":null,"priority":"Critical"}},{"type":"Feature","id":214,"geometry":{"type":"Point","coordinates":[6.770909015626146,7.936264784333167]},"properties":{"F_id":"way/654303084","name":null,"priority":"Critical"}},{"type":"Feature","id":215,"geometry":{"type":"Point","coordinates":[6.770642586250844,7.936270633036633]},"properties":{"F_id":"way/654303084","name":null,"priority":"High"}},{"type":"Feature","id":216,"geometry":{"type":"Point","coordinates":[6.777621000217768,7.849092899792286]},"properties":{"F_id":"way/654769051","name":null,"priority":"High"}},{"type":"Feature","id":217,"geometry":{"type":"Point","coordinates":[6.777869937675189,7.850142350113238]},"properties":{"F_id":"way/654769051","name":null,"priority":"High"}},{"type":"Feature","id":218,"geometry":{"type":"Point","coordinates":[6.777908699720628,7.850269399627683]},"properties":{"F_id":"way/654769051","name":null,"priority":"High"}},{"type":"Feature","id":219,"geometry":{"type":"Point","coordinates":[6.77613982976112,7.843851837129819]},"properties":{"F_id":"way/654769058","name":null,"priority":"High"}},{"type":"Feature","id":220,"geometry":{"type":"Point","coordinates":[6.7762971844697795,7.844063224527542]},"properties":{"F_id":"way/654769058","name":null,"priority":"Critical"}},{"type":"Feature","id":221,"geometry":{"type":"Point","coordinates":[6.7762973282073355,7.844328517793518]},"properties":{"F_id":"way/654769058","name":null,"priority":"Critical"}},{"type":"Feature","id":222,"geometry":{"type":"Point","coordinates":[6.776377894411462,7.844587509244552]},"properties":{"F_id":"way/654769058","name":null,"priority":"Critical"}},{"type":"Feature","id":223,"geometry":{"type":"Point","coordinates":[6.776464966407656,7.8448440809925915]},"properties":{"F_id":"way/654769058","name":null,"priority":"Critical"}},{"type":"Feature","id":224,"geometry":{"type":"Point","coordinates":[6.77659526867876,7.845081217722081]},"properties":{"F_id":"way/654769058","name":null,"priority":"Critical"}},{"type":"Feature","id":225,"geometry":{"type":"Point","coordinates":[6.776572740599313,7.84534970762912]},"properties":{"F_id":"way/654769058","name":null,"priority":"High"}},{"type":"Feature","id":226,"geometry":{"type":"Point","coordinates":[6.776534457738189,7.84561814770281]},"properties":{"F_id":"way/654769058","name":null,"priority":"High"}},{"type":"Feature","id":227,"geometry":{"type":"Point","coordinates":[6.7770255353834195,7.847100998520355]},"properties":{"F_id":"way/654769058","name":null,"priority":"High"}},{"type":"Feature","id":228,"geometry":{"type":"Point","coordinates":[6.777336275789914,7.8481404634500045]},"properties":{"F_id":"way/654769058","name":null,"priority":"High"}},{"type":"Feature","id":229,"geometry":{"type":"Point","coordinates":[6.777413961032014,7.848400329254721]},"properties":{"F_id":"way/654769058","name":null,"priority":"High"}},{"type":"Feature","id":230,"geometry":{"type":"Point","coordinates":[6.777491646324552,7.848660195973005]},"properties":{"F_id":"way/654769058","name":null,"priority":"High"}},{"type":"Feature","id":231,"geometry":{"type":"Point","coordinates":[6.777569331677135,7.848920061797107]},"properties":{"F_id":"way/654769058","name":null,"priority":"High"}},{"type":"Feature","id":232,"geometry":{"type":"Point","coordinates":[6.777621000217768,7.849092899792286]},"properties":{"F_id":"way/654769058","name":null,"priority":"High"}},{"type":"Feature","id":233,"geometry":{"type":"Point","coordinates":[6.4947312001580135,8.396820900020794]},"properties":{"F_id":"way/686052823","name":null,"priority":"Moderate"}},{"type":"Feature","id":234,"geometry":{"type":"Point","coordinates":[6.777908699720628,7.850269399627683]},"properties":{"F_id":"way/1112838252","name":null,"priority":"High"}},{"type":"Feature","id":235,"geometry":{"type":"Point","coordinates":[6.778126683038202,7.85076626724951]},"properties":{"F_id":"way/1112838252","name":null,"priority":"High"}},{"type":"Feature","id":236,"geometry":{"type":"Point","coordinates":[6.778235674390307,7.851014700613947]},"properties":{"F_id":"way/1112838252","name":null,"priority":"High"}},{"type":"Feature","id":237,"geometry":{"type":"Point","coordinates":[6.778344665833704,7.851263134887493]},"properties":{"F_id":"way/1112838252","name":null,"priority":"Critical"}},{"type":"Feature","id":238,"geometry":{"type":"Point","coordinates":[6.778453658284453,7.851511568267166]},"properties":{"F_id":"way/1112838252","name":null,"priority":"Critical"}},{"type":"Feature","id":239,"geometry":{"type":"Point","coordinates":[6.778562649924869,7.8517600016472935]},"properties":{"F_id":"way/1112838252","name":null,"priority":"Critical"}},{"type":"Feature","id":240,"geometry":{"type":"Point","coordinates":[6.778650868145218,7.852016130462922]},"properties":{"F_id":"way/1112838252","name":null,"priority":"Critical"}},{"type":"Feature","id":241,"geometry":{"type":"Point","coordinates":[6.7787219062631605,7.852277882074162]},"properties":{"F_id":"way/1112838252","name":null,"priority":"High"}},{"type":"Feature","id":242,"geometry":{"type":"Point","coordinates":[6.778792945338708,7.852539632796181]},"properties":{"F_id":"way/1112838252","name":null,"priority":"High"}},{"type":"Feature","id":243,"geometry":{"type":"Point","coordinates":[6.778863983554173,7.852801383523255]},"properties":{"F_id":"way/1112838252","name":null,"priority":"High"}},{"type":"Feature","id":244,"geometry":{"type":"Point","coordinates":[6.778888161049721,7.853070152204976]},"properties":{"F_id":"way/1112838252","name":null,"priority":"High"}},{"type":"Feature","id":245,"geometry":{"type":"Point","coordinates":[6.778965653968544,7.853322919722477]},"properties":{"F_id":"way/1112838252","name":null,"priority":"High"}},{"type":"Feature","id":246,"geometry":{"type":"Point","coordinates":[6.779004690631373,7.853591278834341]},"properties":{"F_id":"way/1112838252","name":null,"priority":"High"}},{"type":"Feature","id":247,"geometry":{"type":"Point","coordinates":[6.779043727301783,7.853859637049533]},"properties":{"F_id":"way/1112838252","name":null,"priority":"High"}},{"type":"Feature","id":248,"geometry":{"type":"Point","coordinates":[6.779082763970167,7.854127996175841]},"properties":{"F_id":"way/1112838252","name":null,"priority":"High"}},{"type":"Feature","id":249,"geometry":{"type":"Point","coordinates":[6.779572656937399,7.856294187144785]},"properties":{"F_id":"way/1112838254","name":null,"priority":"High"}},{"type":"Feature","id":250,"geometry":{"type":"Point","coordinates":[6.77952417891073,7.856030150230778]},"properties":{"F_id":"way/1112838254","name":null,"priority":"High"}},{"type":"Feature","id":251,"geometry":{"type":"Point","coordinates":[6.779515769298446,7.855760724490352]},"properties":{"F_id":"way/1112838254","name":null,"priority":"High"}},{"type":"Feature","id":252,"geometry":{"type":"Point","coordinates":[6.779447843310801,7.8554981530877175]},"properties":{"F_id":"way/1112838254","name":null,"priority":"High"}},{"type":"Feature","id":253,"geometry":{"type":"Point","coordinates":[6.779266801753751,7.8550029284237]},"properties":{"F_id":"way/1112838254","name":null,"priority":"High"}},{"type":"Feature","id":254,"geometry":{"type":"Point","coordinates":[6.779176273576657,7.854751014840021]},"properties":{"F_id":"way/1112838254","name":null,"priority":"High"}},{"type":"Feature","id":255,"geometry":{"type":"Point","coordinates":[6.742762452477499,7.783535840138874]},"properties":{"F_id":"way/1116012621","name":null,"priority":"Critical"}},{"type":"Feature","id":256,"geometry":{"type":"Point","coordinates":[6.7426937995459655,7.7837976570240075]},"properties":{"F_id":"way/1116012621","name":null,"priority":"Critical"}},{"type":"Feature","id":257,"geometry":{"type":"Point","coordinates":[6.7425781538599265,7.784042781090744]},"properties":{"F_id":"way/1116012621","name":null,"priority":"Critical"}},{"type":"Feature","id":258,"geometry":{"type":"Point","coordinates":[6.742529576167115,7.784302870809042]},"properties":{"F_id":"way/1116012621","name":null,"priority":"High"}},{"type":"Feature","id":259,"geometry":{"type":"Point","coordinates":[6.774812100364759,7.871579000183553]},"properties":{"F_id":"way/1119376678","name":null,"priority":"Critical"}},{"type":"Feature","id":260,"geometry":{"type":"Point","coordinates":[6.7671436000487795,7.982402999704659]},"properties":{"F_id":"way/1121177751","name":null,"priority":"High"}},{"type":"Feature","id":261,"geometry":{"type":"Point","coordinates":[6.758307197099972,7.842718269545089]},"properties":{"F_id":"way/1122591606","name":null,"priority":"High"}},{"type":"Feature","id":262,"geometry":{"type":"Point","coordinates":[6.758219919296249,7.8424617991503505]},"properties":{"F_id":"way/1122591606","name":null,"priority":"High"}},{"type":"Feature","id":263,"geometry":{"type":"Point","coordinates":[6.758144162380661,7.842204632671275]},"properties":{"F_id":"way/1122591606","name":null,"priority":"Critical"}},{"type":"Feature","id":264,"geometry":{"type":"Point","coordinates":[6.758212403862919,7.841942156342847]},"properties":{"F_id":"way/1122591606","name":null,"priority":"Critical"}},{"type":"Feature","id":265,"geometry":{"type":"Point","coordinates":[6.758288329390303,7.8416818088905025]},"properties":{"F_id":"way/1122591606","name":null,"priority":"Critical"}},{"type":"Feature","id":266,"geometry":{"type":"Point","coordinates":[6.758369013304191,7.841422857035958]},"properties":{"F_id":"way/1122591606","name":null,"priority":"Critical"}},{"type":"Feature","id":267,"geometry":{"type":"Point","coordinates":[6.758427958445873,7.841166065370057]},"properties":{"F_id":"way/1122591606","name":null,"priority":"Critical"}},{"type":"Feature","id":268,"geometry":{"type":"Point","coordinates":[6.7584277997541395,7.841161000021505]},"properties":{"F_id":"way/1122591606","name":null,"priority":"Critical"}}],"name":"lokoja_high_risk_road_points"}